{
  "version": 0.6,
  "generator": "Overpass API 0.7.57.2 48842a1b",
  "osm3s": {
    "timestamp_osm_base": "2022-04-20T21:40:54Z",
    "timestamp_areas_base": "2022-04-20T21:18:41Z",
    "copyright": "The data included in this document is from www.openstreetmap.org. The data is made available under ODbL."
  },
  "elements": [

{
  "type": "node",
  "id": 252918375,
  "lat": 51.2974302,
  "lon": 12.0612878,
  "tags": {
    "addr:city": "Bad Dürrenberg",
    "addr:housenumber": "16",
    "addr:postcode": "06231",
    "addr:street": "Apothekerberg",
    "amenity": "restaurant",
    "cuisine": "german",
    "diet:vegan": "yes",
    "diet:vegetarian": "yes",
    "name": "Alte Apotheke",
    "opening_hours": "Mo-Fr 06:30+; Sa,Su 08:00+",
    "phone": "+49 3462 542280",
    "tourism": "hotel",
    "website": "https://www.hotel-alte-apotheke.de"
  }
},
{
  "type": "node",
  "id": 282473154,
  "lat": 51.4823823,
  "lon": 11.9610093,
  "tags": {
    "addr:city": "Halle (Saale)",
    "addr:housenumber": "2",
    "addr:postcode": "06108",
    "addr:street": "Ankerstraße",
    "amenity": "restaurant",
    "contact:phone": "+49 345 2323 200",
    "contact:website": "https://www.ankerhof.de/htdocs/saalekahn.shtml",
    "diet:vegan": "yes",
    "diet:vegetarian": "yes",
    "name": "Saalekahn",
    "opening_hours": "Mo-Th 12:00-23:00; Fr-Sa 12:00-24:00; Su,PH 12:00-22:00",
    "wheelchair": "no"
  }
},
{
  "type": "node",
  "id": 302835320,
  "lat": 51.4738785,
  "lon": 11.9616488,
  "tags": {
    "addr:city": "Halle (Saale)",
    "addr:housenumber": "40",
    "addr:postcode": "06110",
    "addr:street": "Torstraße",
    "amenity": "fast_food",
    "brand": "Telepizza",
    "brand:wikidata": "Q2699863",
    "brand:wikipedia": "en:Telepizza",
    "contact:phone": "+49 345 68286000",
    "contact:website": "https://www.telepizza.de/halle/",
    "cuisine": "pizza",
    "diet:vegan": "yes",
    "diet:vegetarian": "yes",
    "name": "Telepizza",
    "opening_hours": "11:00-22:00",
    "takeaway": "yes",
    "toilets:wheelchair": "no",
    "wheelchair": "no",
    "wheelchair:description": "Ganz rechts ist eine Betonrampe zum hoch fahren. Aber für den Rollstuhl viel zu steil und in schlechtem zu Stand."
  }
},
{
  "type": "node",
  "id": 309747715,
  "lat": 51.4805900,
  "lon": 11.9793227,
  "tags": {
    "addr:city": "Halle (Saale)",
    "addr:country": "DE",
    "addr:housenumber": "8",
    "addr:postcode": "06108",
    "addr:street": "Augustastraße",
    "amenity": "restaurant",
    "cuisine": "indian",
    "diet:vegan": "yes",
    "diet:vegetarian": "yes",
    "email": "indian.restaurent_shiva@hotmail.de",
    "internet_access": "no",
    "name": "Shiva",
    "opening_hours": "Mo-Su 11:30-15:00,17:30-23:30",
    "operator": "Top Bahadur Basnet",
    "phone": "+49 345 4789517",
    "smoking": "no",
    "website": "http://www.shiva-halle.de",
    "wheelchair": "limited"
  }
},
{
  "type": "node",
  "id": 311197346,
  "lat": 51.4734745,
  "lon": 11.9795031,
  "tags": {
    "addr:city": "Halle (Saale)",
    "addr:housenumber": "5",
    "addr:postcode": "06110",
    "addr:street": "Thomasiusstraße",
    "amenity": "fast_food",
    "contact:phone": "+49 345 6847607",
    "cuisine": "kebab",
    "delivery": "no",
    "diet:vegan": "yes",
    "diet:vegetarian": "yes",
    "drink:club-mate": "yes",
    "name": "Maxi Bistro",
    "opening_hours": "Mo-Su 11:00-23:00",
    "wheelchair": "no"
  }
},
{
  "type": "node",
  "id": 413572583,
  "lat": 51.4835257,
  "lon": 11.9943745,
  "tags": {
    "addr:city": "Halle (Saale)",
    "addr:country": "DE",
    "addr:housenumber": "21",
    "addr:postcode": "06112",
    "addr:street": "Freiimfelder Straße",
    "amenity": "ice_cream",
    "cuisine": "ice_cream",
    "diet:vegan": "yes",
    "name": "Eisdiele Schmidt",
    "opening_hours": "Mo,Tu off; We-Su 10:00-19:00",
    "outdoor_seating": "no",
    "phone": "+49 345 5600952",
    "toilets:wheelchair": "no",
    "wheelchair": "no",
    "wheelchair:description": "Treppen im Eingangsbereich"
  }
},
{
  "type": "node",
  "id": 471978357,
  "lat": 51.4801977,
  "lon": 12.0124661,
  "tags": {
    "addr:city": "Halle (Saale)",
    "addr:housenumber": "14",
    "addr:postcode": "06116",
    "addr:street": "Fiete-Schulze-Straße",
    "amenity": "fast_food",
    "brand": "Papa John's",
    "brand:wikidata": "Q2759586",
    "brand:wikipedia": "en:Papa John's Pizza",
    "contact:phone": "+49 345 6788999",
    "contact:website": "https://www.papajohns.de/papa-johns-halle/",
    "cuisine": "pizza",
    "delivery": "yes",
    "diet:vegan": "yes",
    "diet:vegetarian": "yes",
    "name": "Papa John's",
    "opening_hours": "Mo-Su 11:00-23:00",
    "operator": "UP Gastro GmbH",
    "takeaway": "yes"
  }
},
{
  "type": "node",
  "id": 578246181,
  "lat": 51.4919059,
  "lon": 11.9656933,
  "tags": {
    "addr:city": "Halle (Saale)",
    "addr:country": "DE",
    "addr:housenumber": "1",
    "addr:postcode": "06108",
    "addr:street": "Bernburger Straße",
    "amenity": "bar",
    "contact:facebook": "https://www.facebook.com/mosdaniels/",
    "contact:phone": "+49 345 6869800",
    "contact:website": "http://www.mosdaniels.de",
    "diet:vegan": "yes",
    "diet:vegetarian": "yes",
    "name": "Mo's Daniel's",
    "opening_hours": "Mo-Sa 18:00-01:00",
    "wheelchair": "limited"
  }
},
{
  "type": "node",
  "id": 711744198,
  "lat": 51.4844933,
  "lon": 11.9677199,
  "tags": {
    "addr:city": "Halle (Saale)",
    "addr:country": "DE",
    "addr:housenumber": "3",
    "addr:postcode": "06108",
    "addr:street": "Kleine Marktstraße",
    "amenity": "restaurant",
    "brand": "Hans im Glück",
    "brand:wikidata": "Q22569868",
    "brand:wikipedia": "de:Hans im Glück (Restaurantkette)",
    "contact:facebook": "https://www.facebook.com/hansimglueck.halle.amhaendelhaus",
    "contact:phone": "+49 345 94099040",
    "contact:website": "https://hansimglueck-burgergrill.de/standort/halle-am-haendelhaus/",
    "cuisine": "burger",
    "diet:vegan": "yes",
    "diet:vegetarian": "yes",
    "drink:cocktail": "served",
    "name": "Hans im Glück",
    "opening_hours": "Mo-Th,Su 11:00-23:00; Fr,Sa 11:00-00:00",
    "outdoor_seating": "yes",
    "payment:cash": "yes",
    "payment:girocard": "yes",
    "payment:maestro": "yes",
    "payment:mastercard": "yes",
    "payment:visa": "yes",
    "smoking": "isolated",
    "toilets:wheelchair": "no",
    "wheelchair": "limited"
  }
},
{
  "type": "node",
  "id": 942721131,
  "lat": 51.4871679,
  "lon": 11.9698115,
  "tags": {
    "addr:city": "Halle (Saale)",
    "addr:housenumber": "22",
    "addr:postcode": "06108",
    "addr:street": "Universitätsring",
    "amenity": "fast_food",
    "brand": "Subway",
    "brand:wikidata": "Q244457",
    "brand:wikipedia": "en:Subway (restaurant)",
    "contact:phone": "+49 345 94979848",
    "contact:website": "https://www.subway-halle.de",
    "cuisine": "sandwich",
    "delivery": "yes",
    "diet:vegan": "yes",
    "diet:vegetarian": "yes",
    "name": "Subway",
    "opening_hours": "Mo-Fr 09:00-22:00; Sa-Su 12:00-22:00",
    "takeaway": "yes",
    "wheelchair": "yes"
  }
},
{
  "type": "node",
  "id": 1034448971,
  "lat": 51.4832003,
  "lon": 11.9649977,
  "tags": {
    "addr:city": "Halle (Saale)",
    "addr:country": "DE",
    "addr:housenumber": "11",
    "addr:postcode": "06108",
    "addr:street": "Große Klausstraße",
    "amenity": "pub",
    "contact:facebook": "https://www.facebook.com/Kaffee1990/",
    "diet:vegan": "yes",
    "diet:vegetarian": "yes",
    "food": "yes",
    "name": "Nöö",
    "opening_hours": "Su-Th 10:00-01:00; Fr-Sa 10:00-02:00",
    "opening_hours:covid19": "same",
    "outdoor_seating": "yes",
    "payment:cash": "yes",
    "payment:debit_cards": "yes",
    "smoking": "outside",
    "toilets:wheelchair": "no",
    "wheelchair": "limited"
  }
},
{
  "type": "node",
  "id": 1034449861,
  "lat": 51.4843710,
  "lon": 11.9662724,
  "tags": {
    "addr:city": "Halle (Saale)",
    "addr:housenumber": "2",
    "addr:postcode": "06108",
    "addr:street": "Kleine Ulrichstraße",
    "amenity": "restaurant",
    "description": "Vegetarisches Bistro und Restaurant\nauf der Tageskarte werden vegane Gerichte angeboten\nvegane Gerichte sind als solche auch gekennzeichnet",
    "diet:vegan": "yes",
    "diet:vegetarian": "only",
    "name": "Ökoase",
    "opening_hours": "Mo-Su 11:00-18:00",
    "phone": "+49 345 2901604",
    "toilets:wheelchair": "no",
    "website": "http://www.oekoase-halle.de",
    "wheelchair": "limited",
    "wheelchair:description": "Kleine Stufe am Eingang, leicht zu überwinden, oder Rampe kann angelegt werden. Parkplatz im Parkhaus Händelhauskarree oder Große Nikolaistraße (direkt vor dem Händel-Haus). Behinderten-WC nicht vorhanden."
  }
},
{
  "type": "node",
  "id": 1037059970,
  "lat": 51.4856228,
  "lon": 11.9663357,
  "tags": {
    "addr:city": "Halle (Saale)",
    "addr:country": "DE",
    "addr:housenumber": "11",
    "addr:postcode": "06108",
    "addr:street": "Kleine Ulrichstraße",
    "amenity": "pub",
    "brewery": "yes;Guinness;Killkenny",
    "contact:facebook": "https://www.facebook.com/kaffeeschuppen",
    "contact:phone": "+49 345 2080803",
    "contact:website": "https://www.kaffeeschuppen.de/",
    "description": "lots of whiskey, single malt too",
    "diet:vegan": "yes",
    "diet:vegetarian": "yes",
    "name": "Kaffeeschuppen",
    "opening_hours": "Mo-Th 09:00-01:00; Fr-Sa 09:00-02:00; Su 10:00-01:00",
    "opening_hours:url": "https://web2.cylex.de/firma-home/kaffeeschuppen-halle-5215683.html",
    "operator": "Sascha Kluge",
    "payment:cash": "yes",
    "smoking": "isolated",
    "toilets:wheelchair": "no",
    "wheelchair": "no",
    "wheelchair:description": "keine Rampe, eine Stufe"
  }
},
{
  "type": "node",
  "id": 1037235900,
  "lat": 51.4853210,
  "lon": 11.9713058,
  "tags": {
    "addr:city": "Halle (Saale)",
    "addr:country": "DE",
    "addr:housenumber": "7",
    "addr:postcode": "06108",
    "addr:street": "Mittelstraße",
    "amenity": "bar",
    "contact:facebook": "https://www.facebook.com/Czech-139350349441083/",
    "contact:instagram": "https://www.instagram.com/czech_bar/",
    "diet:vegan": "yes",
    "diet:vegetarian": "yes",
    "name": "Czech",
    "opening_hours": "Mo-Fr 11:00-01:00; Sa-Su 18:00-00:30",
    "opening_hours:covid19": "same",
    "payment:cash": "yes",
    "wheelchair": "no"
  }
},
{
  "type": "node",
  "id": 1037236274,
  "lat": 51.4863816,
  "lon": 11.9676866,
  "tags": {
    "addr:city": "Halle (Saale)",
    "addr:country": "DE",
    "addr:housenumber": "41",
    "addr:postcode": "06108",
    "addr:street": "Große Ulrichstraße",
    "amenity": "restaurant",
    "cuisine": "asian",
    "diet:vegan": "limited",
    "diet:vegetarian": "yes",
    "name": "Anh Asia",
    "opening_hours": "Tu-Th 10:30-21:30; Fr-Sa 10:30-23:00; Su 11:00-22:00",
    "phone": "+49 345 52485122",
    "wheelchair": "no"
  }
},
{
  "type": "node",
  "id": 1038238639,
  "lat": 51.4872362,
  "lon": 11.9684121,
  "tags": {
    "addr:city": "Halle (Saale)",
    "addr:housenumber": "6",
    "addr:postcode": "06108",
    "addr:street": "Universitätsring",
    "amenity": "restaurant",
    "contact:email": "halle@enchilada.de",
    "contact:facebook": "https://www.facebook.com/enchilada.hal/",
    "contact:instagram": "https://www.instagram.com/enchilada_halle/",
    "contact:phone": "+49 345 47896090",
    "contact:website": "https://halle.enchilada.de",
    "cuisine": "mexican",
    "diet:vegan": "yes",
    "diet:vegetarian": "yes",
    "name": "Enchilada",
    "opening_hours": "Mo-Sa 18:00-01:00, Su off",
    "smoking": "isolated",
    "toilets:wheelchair": "yes",
    "wheelchair": "limited"
  }
},
{
  "type": "node",
  "id": 1045144852,
  "lat": 51.4972230,
  "lon": 11.9638301,
  "tags": {
    "addr:city": "Halle (Saale)",
    "addr:housenumber": "10",
    "addr:postcode": "06114",
    "addr:street": "Adolfstraße",
    "amenity": "cafe",
    "diet:vegan": "yes",
    "diet:vegetarian": "yes",
    "name": "Rosenburg",
    "opening_hours": "Mo-Su 10:00-19:00",
    "opening_hours:covid19": "Mo-Su 10:00-17:00",
    "toilets:wheelchair": "no",
    "wheelchair": "limited"
  }
},
{
  "type": "node",
  "id": 1045144871,
  "lat": 51.4955458,
  "lon": 11.9664838,
  "tags": {
    "addr:city": "Halle (Saale)",
    "addr:country": "DE",
    "addr:housenumber": "133",
    "addr:postcode": "06114",
    "addr:street": "Reilstraße",
    "amenity": "bar",
    "contact:facebook": "https://www.facebook.com/zweiZKB/",
    "diet:vegan": "limited",
    "name": "Zwei Zimmer Küche Bar",
    "opening_hours": "Su-Th 12:00-02:00; Fr-Sa 12:00-03:00",
    "wheelchair": "limited"
  }
},
{
  "type": "node",
  "id": 1185202509,
  "lat": 51.4896696,
  "lon": 11.9676367,
  "tags": {
    "addr:city": "Halle (Saale)",
    "addr:country": "DE",
    "addr:housenumber": "41",
    "addr:postcode": "06108",
    "addr:street": "Harz",
    "amenity": "restaurant",
    "contact:website": "https://www.studentenwerk-halle.de/mensen-cafebars/mensen-in-halle/harzmensa/",
    "cuisine": "canteen",
    "delivery": "no",
    "diet:vegan": "yes",
    "diet:vegetarian": "yes",
    "name": "Harzmensa",
    "opening_hours": "Mo-Fr 11:15-14:00",
    "outdoor_seating": "yes",
    "smoking": "no",
    "takeaway": "yes",
    "wheelchair": "yes"
  }
},
{
  "type": "node",
  "id": 1475009992,
  "lat": 51.4826808,
  "lon": 11.9708291,
  "tags": {
    "addr:city": "Halle (Saale)",
    "addr:country": "DE",
    "addr:housenumber": "24",
    "addr:postcode": "06108",
    "addr:street": "Marktplatz",
    "amenity": "restaurant",
    "cuisine": "italian",
    "diet:vegan": "limited",
    "diet:vegetarian": "yes",
    "name": "Rossini",
    "opening_hours": "Mo-Sa 09:00-22:00; Su 10:00-22:00",
    "outdoor_seating": "yes",
    "phone": "+49 345 6856521",
    "toilets:wheelchair": "yes",
    "wheelchair": "yes",
    "wheelchair:description": "Rampe, Aufzug, Behinderten-WC und -Parkplatz vorhanden (Parkhaus Händelhauskarree)."
  }
},
{
  "type": "node",
  "id": 1538147900,
  "lat": 51.4877831,
  "lon": 11.9708458,
  "tags": {
    "addr:city": "Halle (Saale)",
    "addr:country": "DE",
    "addr:housenumber": "3",
    "addr:postcode": "06108",
    "addr:street": "August-Bebel-Straße",
    "amenity": "restaurant",
    "contact:facebook": "https://www.facebook.com/LeFeuHalle/",
    "contact:phone": "+49 345 13 25 96 69",
    "contact:website": "https://www.lefeu.de/le-feu-halle-saale",
    "cuisine": "french",
    "description": "omnivores Flammkuchen-Restaurant\ngroß Auswahl an vegan bestellbaren Flammkuchen - diese sind gut gekennzeichnet",
    "diet:vegan": "yes",
    "diet:vegetarian": "yes",
    "name": "Le Feu",
    "opening_hours": "Su-Th 17:00-22:00; Fr-Sa 17:00-23:00",
    "outdoor_seating": "no",
    "wheelchair": "no"
  }
},
{
  "type": "node",
  "id": 1562519987,
  "lat": 51.4880551,
  "lon": 11.9770411,
  "tags": {
    "addr:city": "Halle (Saale)",
    "addr:housenumber": "3",
    "addr:postcode": "06112",
    "addr:street": "Am Steintor",
    "amenity": "fast_food",
    "check_date:opening_hours": "2022-02-04",
    "contact:email": "info@bistro-sundarban.de",
    "contact:facebook": "https://www.facebook.com/Bistro-Sundarban-am-Steintor-571323043020423/",
    "contact:website": "http://www.bistro-sundarban.de",
    "cuisine": "indian;turkish",
    "diet:vegan": "yes",
    "diet:vegetarian": "yes",
    "name": "Bistro Sundarban",
    "opening_hours": "Mo-Sa 11:00-22:00; Su,PH 12:00-22:00",
    "operator": "H. Kestel",
    "phone": "+49 179 4554442",
    "toilets:wheelchair": "no",
    "wheelchair": "no"
  }
},
{
  "type": "node",
  "id": 1639760594,
  "lat": 51.4882466,
  "lon": 11.9671873,
  "tags": {
    "addr:city": "Halle (Saale)",
    "addr:housenumber": "9",
    "addr:postcode": "06108",
    "addr:street": "Neumarktstraße",
    "amenity": "cafe",
    "contact:facebook": "https://www.facebook.com/bewaffeldich/",
    "contact:instagram": "https://www.instagram.com/bewaffeldich/",
    "contact:website": "https://www.bewaffel-dich.de",
    "cuisine": "waffle",
    "diet:vegan": "yes",
    "diet:vegetarian": "yes",
    "internet_access": "wlan",
    "internet_access:fee": "no",
    "name": "Bewaffel Dich",
    "opening_hours": "Mo-Su 09:00-22:00",
    "outdoor_seating": "yes",
    "wheelchair": "limited"
  }
},
{
  "type": "node",
  "id": 1676156956,
  "lat": 51.4852757,
  "lon": 11.9680151,
  "tags": {
    "addr:city": "Halle (Saale)",
    "addr:country": "DE",
    "addr:housenumber": "16",
    "addr:postcode": "06108",
    "addr:street": "Große Ulrichstraße",
    "amenity": "restaurant",
    "cuisine": "indian",
    "diet:vegan": "limited",
    "diet:vegetarian": "yes",
    "email": "kontakt@house-of-india.de",
    "fax": "+49 345 6857573",
    "name": "House Of India",
    "opening_hours": "Mo-Sa 11:30-14:30,17:30-23:30; PH,Su 11:30-23:30",
    "phone": "+49 345 2083888",
    "website": "https://www.house-of-india.de/",
    "wheelchair": "no",
    "wheelchair:description": "Aufzug erst nach einigen Treppen erreichbar:"
  }
},
{
  "type": "node",
  "id": 1701119442,
  "lat": 51.5121840,
  "lon": 11.9593887,
  "tags": {
    "addr:city": "Halle (Saale)",
    "addr:housenumber": "14",
    "addr:postcode": "06118",
    "addr:street": "Trothaer Straße",
    "contact:website": "https://www.naturata-halle.de",
    "diet:vegan": "yes",
    "diet:vegetarian": "yes",
    "name": "naturata",
    "opening_hours": "Mo-Sa 08:00-20:00",
    "organic": "only",
    "shop": "supermarket",
    "wheelchair": "limited"
  }
},
{
  "type": "node",
  "id": 1781737776,
  "lat": 51.4803019,
  "lon": 11.9717887,
  "tags": {
    "addr:city": "Halle (Saale)",
    "addr:country": "DE",
    "addr:housenumber": "2",
    "addr:postcode": "06108",
    "addr:street": "Kleiner Berlin",
    "amenity": "restaurant",
    "contact:website": "https://www.indien-masala-halle-saale.de",
    "cuisine": "indian",
    "diet:vegan": "yes",
    "name": "Indian Masala",
    "old_name": "Geschwister Knoll",
    "wheelchair": "no"
  }
},
{
  "type": "node",
  "id": 1808694395,
  "lat": 51.4573431,
  "lon": 11.9564321,
  "tags": {
    "addr:city": "Halle (Saale)",
    "addr:housenumber": "17a",
    "addr:street": "Diesterwegstraße",
    "amenity": "ice_cream",
    "diet:vegan": "yes",
    "name": "Eiscafe Rimini",
    "toilets:wheelchair": "no",
    "wheelchair": "yes"
  }
},
{
  "type": "node",
  "id": 1902279166,
  "lat": 51.4959637,
  "lon": 11.9650240,
  "tags": {
    "addr:city": "Halle (Saale)",
    "addr:housenumber": "12",
    "addr:postcode": "06114",
    "addr:street": "Stephanusstraße",
    "diet:vegan": "yes",
    "diet:vegetarian": "yes",
    "name": "Biomarkt am Reileck",
    "opening_hours": "Mo-Fr 09:30-19:00; Sa 09:00-13:00; PH off",
    "organic": "only",
    "shop": "convenience",
    "website": "http://www.biomarkt-halle.de",
    "wheelchair": "no"
  }
},
{
  "type": "node",
  "id": 1931764008,
  "lat": 51.4881925,
  "lon": 11.9707479,
  "tags": {
    "addr:city": "Halle (Saale)",
    "addr:country": "DE",
    "addr:housenumber": "53",
    "addr:postcode": "06108",
    "addr:street": "August-Bebel-Straße",
    "amenity": "restaurant",
    "contact:email": "afamia-eck@hotmail.com",
    "contact:facebook": "https://www.facebook.com/Afamia-Eck-484508991704649/",
    "contact:instagram": "https://www.instagram.com/afamiaeck53/",
    "contact:phone": "+49 345 47885417",
    "contact:website": "https://www.afamia-halle.de",
    "cuisine": "oriental;burger",
    "delivery": "no",
    "description": "orientalisches omvivores Bistro/Gaststätte wechselndes Angebot an Nachspeisen und Hauptgerichten wie vegane Döner mit Seitan, Burger, Falaffel-Variationen, Kartoffelpizza sehr offen und kreativ was veganes Essen angeht viele Innen-Sitzplätze",
    "diet:halal": "yes",
    "diet:vegan": "yes",
    "diet:vegetarian": "yes",
    "name": "Afamia Eck",
    "opening_hours": "Mo-Sa 11:00-21:00",
    "outdoor_seating": "no",
    "smoking": "no",
    "takeaway": "yes",
    "toilets:wheelchair": "no",
    "wheelchair": "no"
  }
},
{
  "type": "node",
  "id": 1943778686,
  "lat": 51.4853313,
  "lon": 11.9679623,
  "tags": {
    "addr:city": "Halle (Saale)",
    "addr:housenumber": "16",
    "addr:postcode": "06108",
    "addr:street": "Große Ulrichstraße",
    "diet:vegan": "yes",
    "diet:vegetarian": "yes",
    "name": "biorio",
    "opening_hours": "Mo-Fr 09:00-19:00; Sa 09:00-19:00",
    "organic": "only",
    "shop": "supermarket",
    "wheelchair": "yes"
  }
},
{
  "type": "node",
  "id": 1955876490,
  "lat": 51.4956736,
  "lon": 11.9664836,
  "tags": {
    "addr:city": "Halle (Saale)",
    "addr:housenumber": "133",
    "addr:postcode": "06114",
    "addr:street": "Reilstraße",
    "amenity": "fast_food",
    "cuisine": "kebab",
    "diet:vegan": "limited",
    "diet:vegan:labeled": "no",
    "diet:vegetarian": "yes",
    "drink:club-mate": "yes",
    "name": "Tomate Döner",
    "opening_hours": "Mo-Su 11:00-22:00",
    "wheelchair": "no"
  }
},
{
  "type": "node",
  "id": 2011410746,
  "lat": 51.4893464,
  "lon": 11.9783821,
  "tags": {
    "addr:city": "Halle (Saale)",
    "addr:housenumber": "13",
    "addr:postcode": "06112",
    "addr:street": "Am Steintor",
    "amenity": "fast_food",
    "cuisine": "asian",
    "diet:vegan": "yes",
    "diet:vegetarian": "yes",
    "name": "Asia Snack",
    "opening_hours": "Mo-Fr 10:30-21:00; Su 11:00-21:00",
    "outdoor_seating": "yes",
    "phone": "+49 345 6783922",
    "wheelchair": "yes"
  }
},
{
  "type": "node",
  "id": 2018747313,
  "lat": 51.4778155,
  "lon": 11.9703782,
  "tags": {
    "addr:city": "Halle (Saale)",
    "addr:housenumber": "4",
    "addr:postcode": "06110",
    "addr:street": "Franckeplatz",
    "amenity": "restaurant",
    "contact:facebook": "https://www.facebook.com/nudelmacher",
    "contact:instagram": "https://www.instagram.com/nudelnmachengluecklich/",
    "contact:phone": "+49 345 25060878",
    "contact:website": "https://www.nudelmanufaktur-halle.de",
    "cuisine": "italian",
    "diet:vegan": "limited",
    "diet:vegetarian": "yes",
    "email": "die@nudelmanufaktur-halle.de",
    "name": "Imbiss „Zur Nudelbude“",
    "opening_hours": "Mo 11:30-14:30; Tu-Sa 11:30-14:30,16:30-19:00",
    "outdoor_seating": "yes",
    "wheelchair": "no"
  }
},
{
  "type": "node",
  "id": 2051567009,
  "lat": 51.4899957,
  "lon": 11.9655845,
  "tags": {
    "addr:city": "Halle (Saale)",
    "addr:country": "DE",
    "addr:housenumber": "21",
    "addr:postcode": "06108",
    "addr:street": "Geiststraße",
    "diet:vegan": "yes",
    "diet:vegetarian": "yes",
    "name": "ÖkoHalle",
    "opening_hours": "Mo-Th 09:00-13:00,15:00-18:30; Fr 09:00-18:30; Sa 09:00-13:00; Su,PH off",
    "organic": "only",
    "shop": "convenience",
    "wheelchair": "no"
  }
},
{
  "type": "node",
  "id": 2065237786,
  "lat": 51.4840227,
  "lon": 11.9715581,
  "tags": {
    "addr:city": "Halle (Saale)",
    "addr:housenumber": "79",
    "addr:postcode": "06108",
    "addr:street": "Große Steinstraße",
    "contact:phone": "+49 345 2034240",
    "contact:website": "https://www.naturell-halle.de",
    "diet:vegan": "yes",
    "diet:vegetarian": "yes",
    "name": "Naturell",
    "opening_hours": "Mo-Fr 09:30-19:00; Sa 10:00-14:00; Su,PH off",
    "organic": "only",
    "shop": "supermarket",
    "wheelchair": "no"
  }
},
{
  "type": "node",
  "id": 2068490774,
  "lat": 51.4873171,
  "lon": 11.9673680,
  "tags": {
    "addr:city": "Halle (Saale)",
    "addr:housenumber": "9",
    "addr:postcode": "06108",
    "addr:street": "Universitätsring",
    "amenity": "bar",
    "contact:email": "the-one-halle@gmx.de",
    "contact:facebook": "https://www.facebook.com/the.1.halle",
    "contact:fax": "+49 345 4704564",
    "contact:instagram": "https://www.instagram.com/the_one_halle/",
    "contact:phone": "+49 157 75356067",
    "contact:website": "https://www.the-one-halle.de",
    "cuisine": "burger",
    "diet:vegan": "yes",
    "diet:vegetarian": "yes",
    "name": "the one",
    "opening_hours": "Tu-Th 17:00-22:00; Fr,Sa 17:00-00:00; Mo,Su,PH off",
    "smoking": "separated",
    "wheelchair": "no"
  }
},
{
  "type": "node",
  "id": 2322858124,
  "lat": 51.4796143,
  "lon": 11.9703883,
  "tags": {
    "addr:city": "Halle (Saale)",
    "addr:country": "DE",
    "addr:housenumber": "18",
    "addr:postcode": "06108",
    "addr:street": "Rannische Straße",
    "diet:vegan": "yes",
    "diet:vegetarian": "yes",
    "name": "Weltladen Halle (Saale)",
    "opening_hours": "Mo-Fr 10:00-18:00; Sa 10:00-14:00",
    "phone": "+49 345 2901049",
    "shop": "convenience",
    "source": "www.weltladenhalle.de",
    "website": "https://www.weltladenhalle.de/",
    "wheelchair": "limited"
  }
},
{
  "type": "node",
  "id": 2338022982,
  "lat": 51.4969000,
  "lon": 11.9665468,
  "tags": {
    "addr:city": "Halle (Saale)",
    "addr:country": "DE",
    "addr:housenumber": "129",
    "addr:postcode": "06114",
    "addr:street": "Reilstraße",
    "amenity": "cafe",
    "contact:facebook": "https://www.facebook.com/cupdergutenhoffnung",
    "diet:vegan": "yes",
    "diet:vegetarian": "only",
    "internet_access:fee": "no",
    "name": "Cup der guten Hoffnung",
    "opening_hours": "Mo-Fr 12:00-18:30"
  }
},
{
  "type": "node",
  "id": 2371803959,
  "lat": 51.3569726,
  "lon": 11.9911235,
  "tags": {
    "addr:city": "Merseburg",
    "addr:housenumber": "1",
    "addr:postcode": "06217",
    "addr:street": "Bahnhofsplatz",
    "amenity": "fast_food",
    "contact:email": "merseburg@freddy-fresh.de",
    "contact:phone": "+49 3461 2897799",
    "contact:website": "https://www.freddy-fresh.de",
    "cuisine": "pizza",
    "diet:vegan": "yes",
    "diet:vegetarian": "yes",
    "level": "0",
    "name": "Freddy Fresh",
    "opening_hours": "Mo-Su 10:30-22:00",
    "wheelchair": "yes"
  }
},
{
  "type": "node",
  "id": 2415756481,
  "lat": 51.4754283,
  "lon": 11.9778323,
  "tags": {
    "addr:city": "Halle (Saale)",
    "addr:housenumber": "44",
    "addr:postcode": "06110",
    "addr:street": "Willy-Brandt-Straße",
    "amenity": "restaurant",
    "contact:email": "info@hallenser-kartoffelhaus.de",
    "contact:facebook": "https://www.facebook.com/Hallenser.Kartoffelhaus/",
    "contact:fax": "+49 345 2038792",
    "contact:phone": "+49 345 502545",
    "contact:website": "https://www.hallenser-kartoffelhaus.de/",
    "cuisine": "regional",
    "diet:vegan": "yes",
    "name": "Hallenser Kartoffelhaus",
    "opening_hours": "Tu-Su 11:30-22:30",
    "operator": "Philipp Kasten",
    "wheelchair": "limited",
    "wheelchair:description": "Eingang über Hinterhof mögl."
  }
},
{
  "type": "node",
  "id": 2496741334,
  "lat": 51.4858657,
  "lon": 11.9665075,
  "tags": {
    "addr:city": "Halle (Saale)",
    "addr:country": "DE",
    "addr:housenumber": "25",
    "addr:postcode": "06108",
    "addr:street": "Kleine Ulrichstraße",
    "amenity": "cafe",
    "contact:facebook": "https://www.facebook.com/naschmadame",
    "contact:instagram": "https://www.instagram.com/naschmadame",
    "contact:phone": "+49 345 2084446",
    "contact:website": "http://www.nasch-madame.de",
    "cuisine": "cake",
    "diet:gluten_free": "yes",
    "diet:vegan": "yes",
    "diet:vegetarian": "only",
    "name": "Nasch Madame - Konditorei",
    "opening_hours": "We-Fr 13:00-18:00; Sa 10:00-18:00; Su 12:00-17:00",
    "toilets:wheelchair": "no",
    "wheelchair": "no"
  }
},
{
  "type": "node",
  "id": 2531221700,
  "lat": 51.4793644,
  "lon": 11.9205143,
  "tags": {
    "addr:city": "Halle (Saale)",
    "addr:country": "DE",
    "addr:housenumber": "17",
    "addr:postcode": "06122",
    "addr:street": "Neustädter Passage",
    "amenity": "fast_food",
    "brand": "Subway",
    "brand:wikidata": "Q244457",
    "brand:wikipedia": "en:Subway (restaurant)",
    "contact:facebook": "https://www.facebook.com/pages/category/Sandwich-Shop/Subway-Halle-Neustadt-223215021143927/",
    "contact:phone": "+49 345 47889859",
    "contact:website": "https://www.subway-halle.de",
    "cuisine": "sandwich",
    "diet:vegan": "limited",
    "diet:vegetarian": "yes",
    "drive_through": "no",
    "name": "Subway",
    "opening_hours": "Mo-We 09:00-22:00; Th-Sa 09:00-23:00; Su 10:00-22:00",
    "takeaway": "yes",
    "wheelchair": "yes",
    "wheelchair:description": "Tische unterfahrbar"
  }
},
{
  "type": "node",
  "id": 2715257424,
  "lat": 51.4851730,
  "lon": 11.9608908,
  "tags": {
    "addr:city": "Halle (Saale)",
    "addr:housenumber": "6",
    "addr:postcode": "06108",
    "addr:street": "Pfälzer Ufer",
    "amenity": "cafe",
    "contact:email": "sonnendeckhalle@yahoo.de",
    "contact:facebook": "https://www.facebook.com/sonnendeckhalle/",
    "contact:instagram": "https://www.instagram.com/sonnendeckhalle/",
    "contact:phone": "+49 163 2049161",
    "contact:website": "https://sonnendeckhalle.wixsite.com/sonnendeckhalle/",
    "diet:vegan": "limited",
    "diet:vegetarian": "yes",
    "name": "Sonnendeck",
    "opening_hours": "Mo-Fr 11:00-18:00+; Sa-Su 10:00-18:00+",
    "operator": "WINZ-Catering UG",
    "outdoor_seating": "terrace",
    "wheelchair": "no"
  }
},
{
  "type": "node",
  "id": 2791600291,
  "lat": 51.4777426,
  "lon": 11.9870829,
  "tags": {
    "addr:city": "Halle (Saale)",
    "addr:country": "DE",
    "addr:housenumber": "1",
    "addr:postcode": "06112",
    "addr:street": "Hans-Dietrich-Genscher-Platz",
    "amenity": "cafe",
    "brand": "Coffee Fellows",
    "brand:wikidata": "Q23461429",
    "brand:wikipedia": "en:Coffee Fellows",
    "contact:website": "https://coffee-fellows.com/",
    "cuisine": "coffee_shop",
    "diet:vegan": "yes",
    "diet:vegetarian": "yes",
    "internet_access": "wlan",
    "internet_access:fee": "no",
    "level": "-1",
    "name": "Coffee Fellows",
    "opening_hours": "Mo-Fr 07:00-18:00; Sa 08:00-18:00; Su 08:00-18:00",
    "phone": "+49 345 29989903",
    "smoking": "no",
    "takeaway": "yes",
    "wheelchair": "yes"
  }
},
{
  "type": "node",
  "id": 2791600304,
  "lat": 51.4775790,
  "lon": 11.9872184,
  "tags": {
    "addr:city": "Halle (Saale)",
    "addr:housenumber": "1",
    "addr:postcode": "06112",
    "addr:street": "Hans-Dietrich-Genscher-Platz",
    "amenity": "fast_food",
    "contact:website": "https://www.einkaufsbahnhof.de/halle-hauptbahnhof/store/halle_obstladen-s7907/",
    "cuisine": "juices",
    "diet:vegan": "yes",
    "diet:vegetarian": "only",
    "level": "-1",
    "name": "mein Obstladen Saftbar",
    "opening_hours": "Mo-Fr 09:00-16:00; Sa-Su off; PH 08:00-20:00",
    "wheelchair": "yes"
  }
},
{
  "type": "node",
  "id": 2874464836,
  "lat": 51.4962613,
  "lon": 11.9665041,
  "tags": {
    "addr:city": "Halle (Saale)",
    "addr:country": "DE",
    "addr:housenumber": "131",
    "addr:postcode": "06114",
    "addr:street": "Reilstraße",
    "amenity": "restaurant",
    "contact:facebook": "https://www.facebook.com/MextremeRestaurantBar/",
    "contact:phone": "+49 345 67820730",
    "contact:website": "http://www.mextreme.net",
    "cuisine": "mexican",
    "diet:vegan": "yes",
    "diet:vegetarian": "yes",
    "name": "Mextreme",
    "opening_hours": "Mo-Th 17:00-23:00; Fr-Sa 17:00-21:00; Su 17:00-22:00",
    "wheelchair": "no"
  }
},
{
  "type": "node",
  "id": 2876264915,
  "lat": 51.4793653,
  "lon": 11.9797147,
  "tags": {
    "addr:city": "Halle (Saale)",
    "addr:country": "DE",
    "addr:housenumber": "17",
    "addr:postcode": "06108",
    "addr:street": "Martinstraße",
    "amenity": "restaurant",
    "capacity": "25",
    "cuisine": "vietnamese",
    "diet:vegan": "yes",
    "diet:vegetarian": "yes",
    "name": "Sao Mai",
    "opening_hours": "Tu-Sa 11:00-22:30; Su,PH 12:00-22:00; Mo off",
    "phone": "+49 345 4722962",
    "toilets:wheelchair": "no",
    "website": "https://www.saomai-halle.de/",
    "wheelchair": "no",
    "wheelchair:description": "Hohe Stufe in den Gastraum aber auf der anderen Straßenseite befindet sich ein kleiner Biergarten wo Speisen und Getränke serviert werden. Biergarten ist mit einem Rollstuhl befahrbar",
    "wikidata": "Q98116261"
  }
},
{
  "type": "node",
  "id": 2932869816,
  "lat": 51.4758150,
  "lon": 11.9701334,
  "tags": {
    "addr:city": "Halle (Saale)",
    "addr:country": "DE",
    "addr:housenumber": "39",
    "addr:postcode": "06110",
    "addr:street": "Steinweg",
    "amenity": "fast_food",
    "cafe": "yes",
    "cuisine": "arab;syrian",
    "diet:halal": "yes",
    "diet:vegan": "yes",
    "diet:vegetarian": "yes",
    "internet_access": "no",
    "name": "Yasmin",
    "name:ar": "ياسمين",
    "name:de": "Yasmin",
    "opening_hours": "Mo-Su 11:00-22:00",
    "phone": "+4915772543654",
    "shisha": "yes",
    "takeaway": "yes",
    "wheelchair": "no"
  }
},
{
  "type": "node",
  "id": 2969150134,
  "lat": 51.4661476,
  "lon": 11.7833499,
  "tags": {
    "addr:city": "Teutschenthal",
    "addr:country": "DE",
    "addr:housenumber": "17",
    "addr:postcode": "06179",
    "addr:street": "Straße der Einheit",
    "addr:suburb": "Bahnhof",
    "contact:email": "martin.schael@freenet.de",
    "contact:facebook": "https://www.facebook.com/B%C3%A4ckerei-Sch%C3%A4l-467517753397255/",
    "contact:instagram": "https://www.instagram.com/martin.schael",
    "contact:phone": "+49 34601 22650",
    "contact:website": "https://www.bäckerei-schäl.de",
    "diet:vegan": "limited",
    "diet:vegetarian": "yes",
    "image": "http://i.imgur.com/Bo8i1GHl.jpg",
    "name": "Schäl",
    "opening_hours": "Mo 06:00-13:00; Tu-Fr 06:00-16:30; Sa 06:00-10:00; Su,PH off",
    "operator": "Martin Schäl",
    "shop": "bakery",
    "source": "Panasonic DMC-TZ41;https://www.bäckerei-schäl.de/"
  }
},
{
  "type": "node",
  "id": 2986723100,
  "lat": 51.3443280,
  "lon": 12.1776830,
  "tags": {
    "addr:city": "Leuna",
    "addr:housename": "Nova Eventis",
    "addr:postcode": "06237",
    "alt_name": "Dunkin' Donuts",
    "amenity": "fast_food",
    "brand": "Dunkin'",
    "brand:wikidata": "Q847743",
    "brand:wikipedia": "en:Dunkin' Donuts",
    "contact:website": "https://www.dunkin-donuts.de",
    "cuisine": "donut;coffee_shop",
    "diet:vegan": "yes",
    "level": "0",
    "name": "Dunkin'",
    "name:ja": "ダンキンドーナツ",
    "opening_hours": "Mo-Sa 10:00-20:00; Su off",
    "takeaway": "yes",
    "wheelchair": "yes"
  }
},
{
  "type": "node",
  "id": 3052291182,
  "lat": 51.4942999,
  "lon": 11.9663396,
  "tags": {
    "addr:city": "Halle (Saale)",
    "addr:country": "DE",
    "addr:housenumber": "21",
    "addr:postcode": "06108",
    "addr:street": "Bernburger Straße",
    "amenity": "restaurant",
    "contact:facebook": "https://www.facebook.com/pages/Seoul-Kulinarisch/1448074335456319",
    "contact:phone": "+49 345 24980596",
    "contact:website": "http://seoulkulinarisch.cafelists.com/",
    "cuisine": "asian",
    "diet:vegan": "limited",
    "diet:vegetarian": "yes",
    "name": "Seoul Kulinarisch",
    "opening_hours": "Mo-Sa 11:00-15:00, 17:00-20:00",
    "toilets:wheelchair": "no",
    "wheelchair": "limited"
  }
},
{
  "type": "node",
  "id": 3122763481,
  "lat": 51.4754624,
  "lon": 11.9703938,
  "tags": {
    "addr:city": "Halle (Saale)",
    "addr:country": "DE",
    "addr:housenumber": "19a",
    "addr:postcode": "06110",
    "addr:street": "Steinweg",
    "amenity": "fast_food",
    "brand": "Domino's",
    "brand:wikidata": "Q839466",
    "brand:wikipedia": "en:Domino's Pizza",
    "contact:phone": "+49 345 68 57 999",
    "contact:website": "https://www.dominos.de/kaufhaus/de-hallesteinweg-33848",
    "cuisine": "pizza",
    "diet:vegan": "yes",
    "diet:vegetarian": "yes",
    "name": "Domino's",
    "opening_hours": "Mo-Su , PH 11:00-23:00",
    "short_name": "Domino's",
    "takeaway": "yes",
    "wheelchair": "yes"
  }
},
{
  "type": "node",
  "id": 3173527817,
  "lat": 51.4954925,
  "lon": 11.9658855,
  "tags": {
    "addr:city": "Halle (Saale)",
    "addr:country": "DE",
    "addr:housenumber": "1",
    "addr:postcode": "06114",
    "addr:street": "Richard-Wagner-Straße",
    "amenity": "fast_food",
    "capacity": "0",
    "contact:facebook": "https://www.facebook.com/burgerservice/",
    "contact:phone": "+49 345 52503748",
    "contact:website": "http://www.burgerservice-halle.de",
    "cuisine": "burger",
    "diet:vegan": "yes",
    "diet:vegetarian": "yes",
    "drive_through": "no",
    "name": "Burgerservice",
    "opening_hours": "Mo off; Tu-Th 11:00-22:00; Fr-Sa 11:00-00:00; Su 11:00-22:00",
    "wheelchair": "yes"
  }
},
{
  "type": "node",
  "id": 3208898648,
  "lat": 51.3439014,
  "lon": 12.1780337,
  "tags": {
    "addr:city": "Leuna",
    "addr:postcode": "06237",
    "addr:street": "Einkaufszentrum NOVA",
    "amenity": "cafe",
    "brand": "Coffee Fellows",
    "brand:wikidata": "Q23461429",
    "brand:wikipedia": "en:Coffee Fellows",
    "contact:phone": "+49 34638 39793",
    "contact:website": "https://coffee-fellows.com/locations/coffee-fellows-leuna-nova-eventis",
    "cuisine": "coffee_shop",
    "diet:vegan": "yes",
    "diet:vegetarian": "yes",
    "internet_access": "yes",
    "level": "1",
    "name": "Coffee Fellows",
    "opening_hours": "Mo-Th 09:00-20:00; Fr 09:00-22:00; Sa 09:00-20:00; Su off",
    "operator": "Coffee Fellows GmbH",
    "smoking": "no",
    "takeaway": "yes",
    "toilets:wheelchair": "yes",
    "wheelchair": "yes"
  }
},
{
  "type": "node",
  "id": 3364559365,
  "lat": 51.4923084,
  "lon": 11.9721516,
  "tags": {
    "addr:city": "Halle (Saale)",
    "addr:country": "DE",
    "addr:housenumber": "22;1",
    "addr:postcode": "06108",
    "addr:street": "Puschkinstraße;Harz",
    "contact:email": "info@theshabby.de",
    "contact:facebook": "https://www.facebook.com/theshabby/",
    "contact:instagram": "https://www.instagram.com/the_shabby/",
    "cuisine": "coffee_shop;cake",
    "diet:vegan": "yes",
    "diet:vegetarian": "yes",
    "disused:amenity": "cafe",
    "name": "The Shabby",
    "opening_date": "2021-12"
  }
},
{
  "type": "node",
  "id": 3387395693,
  "lat": 51.4801097,
  "lon": 11.9245461,
  "tags": {
    "addr:city": "Halle (Saale)",
    "addr:housenumber": "9",
    "addr:postcode": "06122",
    "addr:street": "Neustädter Passage",
    "amenity": "fast_food",
    "brand": "Papa John's",
    "brand:wikidata": "Q2759586",
    "brand:wikipedia": "en:Papa John's Pizza",
    "contact:phone": "+49 345 6788999",
    "contact:website": "https://www.papajohns.de/papa-johns-halle/",
    "cuisine": "pizza",
    "delivery": "yes",
    "diet:vegan": "yes",
    "diet:vegetarian": "yes",
    "name": "Papa John's",
    "opening_hours": "Mo-Su 11:00-23:00",
    "operator": "UP Gastro GmbH",
    "takeaway": "yes",
    "wheelchair": "yes"
  }
},
{
  "type": "node",
  "id": 3590210914,
  "lat": 51.4912396,
  "lon": 11.9690337,
  "tags": {
    "addr:city": "Halle (Saale)",
    "addr:country": "DE",
    "addr:housenumber": "18",
    "addr:postcode": "06108",
    "addr:street": "August-Bebel-Straße",
    "amenity": "restaurant",
    "contact:facebook": "https://www.facebook.com/KumaraAnne/",
    "contact:instagram": "https://www.instagram.com/kumara.soulfood/",
    "contact:phone": "+49 163 3849254",
    "contact:website": "https://www.kumara-soulfood.de",
    "cuisine": "organic",
    "delivery": "no",
    "diet:organic": "only",
    "diet:vegan": "yes",
    "diet:vegetarian": "yes",
    "name": "Kumara soulfood",
    "opening_hours": "Mo-Th 11:00-15:00; Fr 11:00-15:00, 18:00-22:00",
    "takeaway": "yes",
    "wheelchair": "limited"
  }
},
{
  "type": "node",
  "id": 3658458714,
  "lat": 51.4864335,
  "lon": 11.9674203,
  "tags": {
    "addr:city": "Halle (Saale)",
    "addr:country": "DE",
    "addr:housenumber": "40",
    "addr:postcode": "06108",
    "addr:street": "Große Ulrichstraße",
    "amenity": "cafe",
    "contact:facebook": "https://www.facebook.com/KornLiebchen-375530942489161/",
    "contact:phone": "+49 345 4723780",
    "contact:website": "http://www.kornliebchen.de",
    "diet:vegan": "yes",
    "diet:vegetarian": "yes",
    "name": "KornLiebchen",
    "opening_hours": "Tu-Fr 09:00-18:30; Sa 09:00-16:00",
    "outdoor_seating": "yes",
    "shop": "bakery",
    "toilets:wheelchair": "no",
    "wheelchair": "limited",
    "wheelchair:description": "Rampe vorhanden, Toiletten sehr klein und nicht mit Rolli erreichbar"
  }
},
{
  "type": "node",
  "id": 3724388225,
  "lat": 51.4872726,
  "lon": 11.9682453,
  "tags": {
    "addr:city": "Halle (Saale)",
    "addr:country": "DE",
    "addr:housenumber": "6a",
    "addr:postcode": "06108",
    "addr:street": "Universitätsring",
    "amenity": "restaurant",
    "contact:facebook": "https://www.facebook.com/burgerheart.halle",
    "contact:instagram": "https://www.instagram.com/burgerheart_halle",
    "contact:website": "https://halle.burgerheart.com",
    "cuisine": "burger",
    "diet:vegan": "yes",
    "diet:vegetarian": "yes",
    "name": "Burgerheart",
    "opening_hours": "Mo-Su 12:00-23:00",
    "wheelchair": "no"
  }
},
{
  "type": "node",
  "id": 3752087074,
  "lat": 51.4863948,
  "lon": 11.9669050,
  "tags": {
    "addr:city": "Halle (Saale)",
    "addr:housenumber": "26",
    "addr:postcode": "06108",
    "addr:street": "Große Ulrichstraße",
    "amenity": "restaurant",
    "contact:facebook": "https://www.facebook.com/rotesossehalle/",
    "contact:phone": "+49 345 68252080",
    "contact:website": "https://www.rotesosse.de",
    "cuisine": "italian",
    "diet:vegan": "yes",
    "diet:vegetarian": "yes",
    "name": "Rote Soße",
    "opening_hours": "Mo-Su 12:00-22:00",
    "opening_hours:covid19": "Mo-Su 17:00-21:00",
    "toilets:wheelchair": "no",
    "wheelchair": "limited",
    "wheelchair:description": "eine Stufe am Eingang"
  }
},
{
  "type": "node",
  "id": 3753966634,
  "lat": 51.4937554,
  "lon": 11.9747563,
  "tags": {
    "addr:city": "Halle (Saale)",
    "addr:country": "DE",
    "addr:housenumber": "20",
    "addr:postcode": "06114",
    "addr:street": "Schleiermacherstraße",
    "amenity": "cafe",
    "contact:facebook": "https://www.facebook.com/Vanilla-der-Eisladen-121869997866052/timeline/",
    "cuisine": "ice_cream",
    "diet:vegan": "yes",
    "diet:vegetarian": "yes",
    "name": "Vanilla",
    "opening_hours": "12:00-19:00",
    "opening_hours:covid19": "Mo-Su,PH 12:00-19:00",
    "outdoor_seating": "yes"
  }
},
{
  "type": "node",
  "id": 3820929262,
  "lat": 51.3549709,
  "lon": 11.9924674,
  "tags": {
    "addr:city": "Merseburg",
    "addr:country": "DE",
    "addr:housenumber": "2",
    "addr:postcode": "06217",
    "addr:street": "König-Heinrich-Straße",
    "amenity": "fast_food",
    "brand": "Subway",
    "brand:wikidata": "Q244457",
    "brand:wikipedia": "en:Subway (restaurant)",
    "contact:phone": "+49 3461 8249020",
    "contact:website": "https://restaurants.subway.com/germany/st/merseburg/konig-heinrich-stra%C3%9Fe-2",
    "cuisine": "sandwich",
    "delivery": "no",
    "diet:vegan": "limited",
    "diet:vegetarian": "yes",
    "drive_through": "no",
    "name": "Subway",
    "opening_hours": "Mo-Fr 09:00-21:00; Sa 10:00-21:00; Su 12:00-21:00",
    "smoking": "no",
    "takeaway": "yes",
    "wheelchair": "no"
  }
},
{
  "type": "node",
  "id": 3821868244,
  "lat": 51.4872473,
  "lon": 11.9662899,
  "tags": {
    "addr:city": "Halle (Saale)",
    "addr:housenumber": "33",
    "addr:postcode": "06108",
    "addr:street": "Große Ulrichstraße",
    "amenity": "restaurant",
    "contact:facebook": "https://www.facebook.com/sakurahalle/",
    "contact:phone": "+49 345 97606360",
    "contact:website": "https://www.sakura-halle.de",
    "cuisine": "japanese",
    "diet:vegan": "limited",
    "diet:vegetarian": "yes",
    "name": "Sakura",
    "opening_hours": "Mo-Sa 11:30-14:30,17:30-23:00; Su,PH 11:30-15:00,17:30-22:00",
    "wheelchair": "limited",
    "wheelchair:description": "Fahrstuhl vorhanden!"
  }
},
{
  "type": "node",
  "id": 4036431410,
  "lat": 51.4933783,
  "lon": 11.9699697,
  "tags": {
    "addr:city": "Halle (Saale)",
    "addr:country": "DE",
    "addr:housenumber": "29",
    "addr:postcode": "06108",
    "addr:street": "Ludwig-Wucherer-Straße",
    "amenity": "fast_food",
    "contact:email": "vegs.halle@gmx.de",
    "contact:facebook": "https://www.facebook.com/vegs.halle/",
    "contact:instagram": "https://www.instagram.com/vegs.halle/",
    "contact:phone": "+49 176 20796828",
    "contact:website": "https://www.vegs-halle.de",
    "cuisine": "wraps",
    "delivery": "no",
    "description": "Halles einzige ausschließlich-vegane Gastronomie",
    "diet:dairy_free": "only",
    "diet:lactose_free": "only",
    "diet:vegan": "only",
    "diet:vegetarian": "only",
    "drink:club-mate": "yes",
    "drive_through": "no",
    "name": "Vegs",
    "opening_hours": "Mo-Fr 12:00-20:00; Sa,Su,PH off",
    "outdoor_seating": "limited",
    "payment:cash": "yes",
    "payment:maestro": "yes",
    "smoking": "outside",
    "takeaway": "yes",
    "toilets:wheelchair": "no",
    "wheelchair": "no"
  }
},
{
  "type": "node",
  "id": 4465518868,
  "lat": 51.4758258,
  "lon": 11.9703747,
  "tags": {
    "addr:city": "Halle (Saale)",
    "addr:housenumber": "17",
    "addr:postcode": "06110",
    "addr:street": "Steinweg",
    "amenity": "restaurant",
    "cuisine": "sushi",
    "delivery": "yes",
    "diet:vegan": "yes",
    "diet:vegetarian": "yes",
    "name": "Sushifreunde",
    "opening_hours": "Mo-Su 11:30-22:00",
    "takeaway": "yes",
    "website": "http://www.sushifreunde.de/anfahrt-kontakt/#sctab541"
  }
},
{
  "type": "node",
  "id": 4730436532,
  "lat": 51.4977698,
  "lon": 11.9555747,
  "tags": {
    "addr:city": "Halle (Saale)",
    "addr:housenumber": "47a",
    "addr:postcode": "06114",
    "addr:street": "Burgstraße",
    "amenity": "ice_cream",
    "cuisine": "ice_cream",
    "diet:vegan": "yes",
    "diet:vegetarian": "yes",
    "name": "Eisburg",
    "opening_hours": "Mo-Fr 13:00-20:00; Sa-Su 12:00-20:00",
    "outdoor_seating": "yes"
  }
},
{
  "type": "node",
  "id": 4815445923,
  "lat": 51.4849077,
  "lon": 11.9664563,
  "tags": {
    "addr:city": "Halle (Saale)",
    "addr:country": "DE",
    "addr:housenumber": "33",
    "addr:postcode": "06108",
    "addr:street": "Kleine Ulrichstraße",
    "amenity": "restaurant",
    "cuisine": "hungarian",
    "diet:vegan": "yes",
    "diet:vegetarian": "yes",
    "name": "Budapest Restaurant",
    "opening_hours": "We-Fr 11:30-14:30,17:30-22:00; Sa 11:30-14:30,17:30-23:00; Su 11:30-15:00",
    "phone": "+49 345 68879585",
    "website": "https://www.budapest-jambor.de",
    "wheelchair": "no",
    "wheelchair:description": "Anhand von Foto sind am Eingang zwei Stufen zu überwinden"
  }
},
{
  "type": "node",
  "id": 4815463722,
  "lat": 51.4863491,
  "lon": 11.9661277,
  "tags": {
    "addr:city": "Halle (Saale)",
    "addr:country": "DE",
    "addr:housenumber": "1",
    "addr:postcode": "06108",
    "addr:street": "Bergstraße",
    "amenity": "restaurant",
    "contact:facebook": "https://www.facebook.com/vietvillagehalle",
    "cuisine": "vietnamese",
    "diet:vegan": "limited",
    "diet:vegetarian": "yes",
    "name": "Viet Village",
    "opening_hours": "Mo-Su 11:00-23:00",
    "outdoor_seating": "yes",
    "website": "http://vietvillageasianstreetfood.cafelists.com/",
    "wheelchair:description": "keine Angaben, Eckgebäude zur Ulrichstraße"
  }
},
{
  "type": "node",
  "id": 4868552820,
  "lat": 51.4994094,
  "lon": 11.9330975,
  "tags": {
    "addr:city": "Halle (Saale)",
    "addr:housenumber": "1a",
    "addr:postcode": "06120",
    "addr:street": "Hubertusplatz",
    "amenity": "fast_food",
    "brand": "Papa John's",
    "brand:wikidata": "Q2759586",
    "brand:wikipedia": "en:Papa John's Pizza",
    "contact:phone": "+49 345 6788999",
    "contact:website": "https://www.papajohns.de/papa-johns-halle/",
    "cuisine": "pizza",
    "delivery": "yes",
    "diet:vegan": "yes",
    "diet:vegetarian": "yes",
    "name": "Papa John's",
    "opening_hours": "Mo-Su 11:00-23:00",
    "operator": "UP Gastro GmbH",
    "survey:date": "2020-12-25",
    "takeaway": "yes",
    "wheelchair": "yes",
    "wheelchair:description": "unklar ob nur Lieferservice oder auch Restaurant bzw. Imbiss"
  }
},
{
  "type": "node",
  "id": 4893692292,
  "lat": 51.4939567,
  "lon": 11.9687571,
  "tags": {
    "addr:city": "Halle (Saale)",
    "addr:housenumber": "29",
    "addr:postcode": "06114",
    "addr:street": "Mühlweg",
    "amenity": "restaurant",
    "contact:facebook": "https://www.facebook.com/pandileoFood/",
    "contact:phone": "+49 1522 1410403",
    "cuisine": "burrito;bowl",
    "diet:vegan": "yes",
    "diet:vegetarian": "yes",
    "name": "Pandileo",
    "opening_hours": "We-Mo 12:00-20:00",
    "outdoor_seating": "yes",
    "wheelchair": "limited"
  }
},
{
  "type": "node",
  "id": 4893782127,
  "lat": 51.4929590,
  "lon": 11.9708593,
  "tags": {
    "addr:city": "Halle (Saale)",
    "addr:housenumber": "27",
    "addr:postcode": "06108",
    "addr:street": "Ludwig-Wucherer-Straße",
    "amenity": "fast_food",
    "contact:facebook": "https://www.facebook.com/Yasmine-Grillhaus-Oriental-Diner-107727340809090/",
    "cuisine": "oriental",
    "diet:vegan": "limited",
    "diet:vegetarian": "yes",
    "name": "Yasmine",
    "opening_hours": "Mo-Su 11:00-23:00",
    "outdoor_seating": "yes",
    "wheelchair": "no"
  }
},
{
  "type": "node",
  "id": 4893812414,
  "lat": 51.4914512,
  "lon": 11.9740497,
  "tags": {
    "addr:city": "Halle (Saale)",
    "addr:housenumber": "12",
    "addr:postcode": "06108",
    "addr:street": "Ludwig-Wucherer-Straße",
    "amenity": "cafe",
    "contact:facebook": "https://www.facebook.com/KiezDoenerLuWu/",
    "contact:instagram": "https://www.instagram.com/kiezdoenerluwu/",
    "cuisine": "turkish",
    "diet:vegan": "yes",
    "drive_through": "no",
    "name": "TEKİEZ",
    "old:name": "Kiez Döner",
    "opening_hours": "Mo-So 08:00-18:00",
    "outdoor_seating": "yes",
    "takeaway": "yes"
  }
},
{
  "type": "node",
  "id": 4914539421,
  "lat": 51.4854444,
  "lon": 11.9699118,
  "tags": {
    "addr:city": "Halle (Saale)",
    "addr:housenumber": "11",
    "addr:postcode": "06108",
    "addr:street": "Barfüßerstraße",
    "amenity": "cafe",
    "contact:facebook": "https://www.facebook.com/7Grammcafe/",
    "cuisine": "coffee_shop",
    "diet:vegan": "yes",
    "diet:vegetarian": "yes",
    "email": "cafe@7gramm.com",
    "internet_access": "wlan",
    "name": "7 Gramm",
    "opening_hours": "Mo-Fr 09:00-22:00; Sa 10:00-22:00; Su 12:00-18:00",
    "phone": "+49 151 43239924",
    "website": "http://7gramm.com",
    "wheelchair": "limited",
    "wikidata": "Q98642649"
  }
},
{
  "type": "node",
  "id": 4948443538,
  "lat": 51.4909923,
  "lon": 11.9657436,
  "tags": {
    "addr:city": "Halle (Saale)",
    "addr:country": "DE",
    "addr:housenumber": "28",
    "addr:postcode": "06108",
    "addr:street": "Geiststraße",
    "amenity": "fast_food",
    "cuisine": "asian",
    "diet:vegan": "yes",
    "diet:vegetarian": "yes",
    "name": "Thang-Long Imbiss",
    "opening_hours": "Mo-Fr 09:30-19:30; Sa 10:30-19:00; Su off",
    "phone": "+49 174 7863204",
    "wheelchair": "no"
  }
},
{
  "type": "node",
  "id": 4971464334,
  "lat": 51.5011975,
  "lon": 11.9619723,
  "tags": {
    "addr:city": "Halle (Saale)",
    "addr:housenumber": "20",
    "addr:postcode": "06114",
    "addr:street": "Eichendorffstraße",
    "amenity": "cafe",
    "contact:facebook": "https://www.facebook.com/cafeludwig/",
    "contact:instagram": "https://www.instagram.com/ludwigcafe/",
    "contact:phone": "+49 177 1567566",
    "contact:website": "https://www.cafeludwig-halle.de",
    "diet:vegan": "yes",
    "diet:vegetarian": "yes",
    "name": "Café Ludwig",
    "opening_hours": "Tu-Fr 13:00-24:00; Sa 10:00-24:00; Su 10:00-19:00",
    "outdoor_seating": "yes",
    "payment:cash": "yes",
    "wheelchair": "no"
  }
},
{
  "type": "node",
  "id": 4974999721,
  "lat": 51.4867456,
  "lon": 11.9667696,
  "tags": {
    "addr:city": "Halle (Saale)",
    "addr:country": "DE",
    "addr:housenumber": "29",
    "addr:postcode": "06108",
    "addr:street": "Große Ulrichstraße",
    "amenity": "cafe",
    "contact:facebook": "https://www.facebook.com/Bagel29Halle/",
    "contact:phone": "+49 345 51725821",
    "contact:website": "https://bagel29.hpage.com",
    "cuisine": "bagel",
    "diet:vegan": "yes",
    "diet:vegetarian": "yes",
    "name": "Bagel 29",
    "opening_hours": "Mo-Sa 10:00-18:00; Su off",
    "wheelchair": "yes",
    "wheelchair:description": "Rampe wird auf Nachfrage ausgelegt"
  }
},
{
  "type": "node",
  "id": 5091097909,
  "lat": 51.3558738,
  "lon": 11.9993352,
  "tags": {
    "addr:city": "Merseburg",
    "addr:country": "DE",
    "addr:housenumber": "6",
    "addr:postcode": "06217",
    "addr:street": "Burgstraße",
    "amenity": "restaurant",
    "contact:email": "info@tajmahal-merseburg.de",
    "contact:fax": "+49 3461-2769068",
    "contact:phone": "+49 3461-2769066",
    "cuisine": "indian",
    "diet:non-vegetarian": "yes",
    "diet:pescetarian": "yes",
    "diet:vegan": "yes",
    "diet:vegetarian": "yes",
    "name": "Taj Mahal",
    "opening_hours": "Mo-Su 11:00-23:00",
    "outdoor_seating": "yes",
    "payment:cash": "yes",
    "payment:credit_cards": "yes",
    "payment:debit_cards": "yes",
    "phone": "+49 3461-2769066",
    "smoking": "outside",
    "smoking:outside": "outside",
    "website": "www.tajmahal-merseburg.de"
  }
},
{
  "type": "node",
  "id": 5245541311,
  "lat": 51.4816909,
  "lon": 11.9721836,
  "tags": {
    "addr:city": "Halle (Saale)",
    "addr:housenumber": "100",
    "addr:postcode": "06108",
    "addr:street": "Leipziger Straße",
    "brand": "denn's Biomarkt",
    "brand:wikidata": "Q48883773",
    "brand:wikipedia": "de:Denn’s Biomarkt",
    "contact:phone": "+49 345 68169155",
    "contact:website": "https://www.denns-biomarkt.de/halle-leipziger-str-100/marktseite/",
    "diet:vegan": "yes",
    "diet:vegetarian": "yes",
    "name": "denn's Biomarkt",
    "opening_hours": "Mo-Sa 08:00-20:00",
    "organic": "only",
    "shop": "supermarket",
    "wheelchair": "yes"
  }
},
{
  "type": "node",
  "id": 5583171123,
  "lat": 51.4737109,
  "lon": 11.9688803,
  "tags": {
    "addr:city": "Halle (Saale)",
    "addr:housenumber": "1",
    "addr:postcode": "06110",
    "addr:street": "Torstraße",
    "contact:email": "info@yenso.eu",
    "contact:facebook": "https://www.facebook.com/yenso.markt/",
    "contact:phone": "+49 176 57882542",
    "contact:website": "https://www.yenso.eu",
    "diet:vegan": "yes",
    "diet:vegetarian": "yes",
    "name": "YENSO Asia Markt",
    "opening_hours": "Mo-Sa 09:00-19:00; Su off",
    "shop": "convenience",
    "wheelchair": "no"
  }
},
{
  "type": "node",
  "id": 5592955318,
  "lat": 51.4707364,
  "lon": 11.9632008,
  "tags": {
    "addr:city": "Halle (Saale)",
    "addr:housenumber": "37",
    "addr:postcode": "06110",
    "addr:street": "Ludwigstraße",
    "description": "Veganes Essen gegen Spende. Jeden Dienstag ab 20:00 Uhr.",
    "diet:vegan": "only",
    "diet:vegetarian": "only",
    "name": "VL-Küfa",
    "opening_hours": "Tu 20:00+",
    "opening_hours:signed": "no",
    "website": "https://www.ludwigstrasse37.de/kuefa.html"
  }
},
{
  "type": "node",
  "id": 5592987513,
  "lat": 51.5071812,
  "lon": 11.9661347,
  "tags": {
    "addr:city": "Halle (Saale)",
    "addr:housenumber": "78",
    "addr:postcode": "06114",
    "addr:street": "Reilstraße",
    "contact:facebook": "https://www.facebook.com/reil78/",
    "contact:website": "https://www.reil78.de",
    "diet:vegan": "only",
    "name": "Reil-Küfa",
    "opening_hours": "Su 19:00+"
  }
},
{
  "type": "node",
  "id": 5593108867,
  "lat": 51.5002376,
  "lon": 11.9573124,
  "tags": {
    "addr:city": "Halle (Saale)",
    "addr:housenumber": "63",
    "addr:postcode": "06114",
    "addr:street": "Große Brunnenstraße",
    "contact:facebook": "https://www.facebook.com/Himmel-Erde-HalleSaale-148488261909246/",
    "contact:website": "https://kleinfolgenreich.de/archive/himmel-und-erde/",
    "description": "„ausgesuchte Waren des täglichen Bedarfs in Bio-Qualität“\nvegetarische (meist vegane) Tagessuppe",
    "diet:vegan": "yes",
    "diet:vegetarian": "yes",
    "name": "Himmel & Erde",
    "opening_hours": "Mo-Fr 12:00-18:00",
    "organic": "only",
    "shop": "supermarket"
  }
},
{
  "type": "node",
  "id": 5599806557,
  "lat": 51.4854936,
  "lon": 11.9678025,
  "tags": {
    "addr:city": "Halle (Saale)",
    "addr:country": "DE",
    "addr:housenumber": "18",
    "addr:postcode": "06108",
    "addr:street": "Große Ulrichstraße",
    "amenity": "restaurant",
    "contact:facebook": "https://www.facebook.com/Yaman.Sham.Restaurant/",
    "contact:lieferando": "https://www.lieferando.de/speisekarte/yaman-sham-restaurant",
    "contact:phone": "+49 152 21488547",
    "contact:website": "https://www.sham-restaurant.com",
    "cuisine": "arabic;fast_food;syrian;arab",
    "delivery": "yes",
    "description": "Kein typischer Dönerladen, sondern ein arabischer Imbiss. Man bekommt bei Bestellung einen Pieper, der laut wird, wenn das Essen abholbereit ist. Es gibt zwar auch Dönergerichte, aber auch viele andere nahöstliche Spezialitäten. Die Eröffnung war 2018.",
    "diet:halal": "yes",
    "diet:vegan": "yes",
    "diet:vegetarian": "yes",
    "name": "Yaman Sham",
    "name:ar": "يمان الشام",
    "name:de": "Yaman Sham",
    "opening_hours": "Mo-Su 11:00-23:00",
    "outdoor_seating": "no",
    "smoking": "no",
    "start_date": "2018",
    "takeaway": "yes",
    "toilets:wheelchair": "no",
    "wheelchair": "limited"
  }
},
{
  "type": "node",
  "id": 5868832962,
  "lat": 51.4737130,
  "lon": 11.9701787,
  "tags": {
    "addr:city": "Halle (Saale)",
    "addr:housenumber": "1",
    "addr:postcode": "06110",
    "addr:street": "Liebenauer Straße",
    "amenity": "restaurant",
    "contact:facebook": "https://www.facebook.com/TandooriSteakhaus/",
    "contact:website": "https://www.tandoori-halle.de/",
    "cuisine": "indian;latin_american",
    "diet:vegan": "yes",
    "diet:vegetarian": "yes",
    "internet_access": "wlan",
    "internet_access:fee": "no",
    "name": "Tandoori Steakhaus",
    "opening_hours": "Mo-Su 11:30-14:30, 17:30-23:00"
  }
},
{
  "type": "node",
  "id": 5942265574,
  "lat": 51.4791470,
  "lon": 11.9788562,
  "tags": {
    "addr:city": "Halle (Saale)",
    "addr:housenumber": "70",
    "addr:postcode": "06108",
    "addr:street": "Leipziger Straße",
    "amenity": "cafe",
    "contact:email": "halle@koffij.de",
    "contact:facebook": "https://www.facebook.com/koffij.hal/",
    "contact:instagram": "https://www.instagram.com/koffijhalle/",
    "contact:phone": "+49 345 21389065",
    "contact:website": "https://saltlabs.de/koffij/",
    "diet:vegan": "yes",
    "diet:vegetarian": "yes",
    "internet_access": "wlan",
    "name": "koffij",
    "opening_hours": "Mo-Fr 10:00-18:00; Sa 09:00-16:00; Su off",
    "toilets:wheelchair": "yes",
    "wheelchair": "yes"
  }
},
{
  "type": "node",
  "id": 6033781352,
  "lat": 51.4956871,
  "lon": 11.9655416,
  "tags": {
    "addr:city": "Halle (Saale)",
    "addr:country": "DE",
    "addr:housenumber": "32",
    "addr:postcode": "06114",
    "addr:street": "Reilstraße",
    "amenity": "cafe",
    "contact:instagram": "https://www.instagram.com/toertcheneck.konditorei/",
    "contact:phone": "+49 345 13252434",
    "contact:website": "https://www.toertcheneck.de",
    "cuisine": "cake",
    "diet:vegan": "yes",
    "diet:vegetarian": "only",
    "name": "Törtcheneck",
    "opening_hours": "Tu-Sa 11:00-16:00",
    "outdoor_seating": "no",
    "phone": "+49 345 13252434",
    "website": "https://www.toertcheneck.de"
  }
},
{
  "type": "node",
  "id": 6366059605,
  "lat": 51.4969861,
  "lon": 11.9628071,
  "tags": {
    "addr:city": "Halle (Saale)",
    "addr:housenumber": "23 a",
    "addr:postcode": "06114",
    "addr:street": "Karl-Liebknecht-Straße",
    "diet:vegan": "yes",
    "diet:vegetarian": "yes",
    "name": "Rübchen",
    "opening_hours": "Mo 13:00-19:00; Tu-Th 16:00-19:00; Fr 10:00-13:00,16:00-19:00; Sa 10:00-13:00; Su,PH off",
    "organic": "only",
    "shop": "foodcoop"
  }
},
{
  "type": "node",
  "id": 6569044919,
  "lat": 51.4849106,
  "lon": 11.9610697,
  "tags": {
    "addr:city": "Halle (Saale)",
    "addr:housenumber": "4",
    "addr:postcode": "06108",
    "addr:street": "Pfälzer Ufer",
    "amenity": "bar",
    "contact:facebook": "https://www.facebook.com/Hafenmeister-Docks-154417685229693/",
    "diet:vegan": "yes",
    "name": "Hafenmeister & Docks",
    "opening_hours": "Mo-Fr 11:30-18:00; Sa 10:00-18:00; Su 09:00-18:00",
    "outdoor_seating": "yes"
  }
},
{
  "type": "node",
  "id": 6805328949,
  "lat": 51.4778531,
  "lon": 11.9872248,
  "tags": {
    "addr:city": "Halle (Saale)",
    "addr:housenumber": "1",
    "addr:postcode": "06112",
    "addr:street": "Hans-Dietrich-Genscher-Platz",
    "diet:vegan": "yes",
    "diet:vegetarian": "yes",
    "name": "Bio im Bahnhof",
    "opening_hours": "Mo-Su 08:00-19:00",
    "organic": "yes",
    "shop": "convenience",
    "wheelchair": "yes"
  }
},
{
  "type": "node",
  "id": 6820930072,
  "lat": 51.4740020,
  "lon": 11.9700357,
  "tags": {
    "addr:city": "Halle (Saale)",
    "addr:housenumber": "29",
    "addr:postcode": "06110",
    "addr:street": "Steinweg",
    "amenity": "cafe",
    "contact:facebook": "https://www.facebook.com/Pirashki-Halle-464419094098752/",
    "cuisine": "russian",
    "diet:vegan": "yes",
    "diet:vegetarian": "yes",
    "name": "Pirashki",
    "opening_hours": "Mo-Su 15:00-20:00"
  }
},
{
  "type": "node",
  "id": 7026845075,
  "lat": 51.4774619,
  "lon": 11.9869940,
  "tags": {
    "addr:city": "Halle (Saale)",
    "addr:postcode": "06112",
    "addr:street": "Hans-Dietrich-Genscher-Platz",
    "amenity": "fast_food",
    "brand": "Subway",
    "brand:wikidata": "Q244457",
    "brand:wikipedia": "en:Subway (restaurant)",
    "contact:website": "https://www.subway-halle.de",
    "cuisine": "sandwich",
    "diet:vegan": "yes",
    "diet:vegetarian": "yes",
    "level": "-1",
    "name": "Subway",
    "note": "Öffnungszeiten müssen noch überprüft werden",
    "opening_hours": "Mo-Sa 07:00-20:00; Su,PH 08:00-20:00",
    "takeaway": "yes",
    "wheelchair": "yes"
  }
},
{
  "type": "node",
  "id": 7027316371,
  "lat": 51.4875765,
  "lon": 11.9764108,
  "tags": {
    "addr:city": "Halle (Saale)",
    "addr:housenumber": "34",
    "addr:postcode": "06108",
    "addr:street": "Große Steinstraße",
    "amenity": "restaurant",
    "contact:facebook": "https://www.facebook.com/BistroLorraine",
    "cuisine": "international",
    "diet:vegan": "yes",
    "diet:vegetarian": "yes",
    "name": "Bistro Lorraine",
    "opening_hours": "Mo 12:30-16:00; Tu-Fr 11:30-16:00; Sa,Su,PH off"
  }
},
{
  "type": "node",
  "id": 7068127430,
  "lat": 51.4282383,
  "lon": 11.9661048,
  "tags": {
    "access": "customers",
    "addr:city": "Halle (Saale)",
    "addr:housenumber": "1",
    "addr:postcode": "06132",
    "addr:street": "Am Wasserwerk",
    "amenity": "restaurant",
    "cuisine": "mexican",
    "diet:vegan": "limited",
    "diet:vegetarian": "yes",
    "name": "Cancun-Bar",
    "opening_hours": "Mo-Su 10:00-22:00",
    "website": "https://www.mayamare.de/sauna-wellness/#cancunbar"
  }
},
{
  "type": "node",
  "id": 7206763585,
  "lat": 51.4961558,
  "lon": 11.9653379,
  "tags": {
    "addr:city": "Halle (Saale)",
    "addr:housenumber": "57",
    "addr:postcode": "06114",
    "addr:street": "Richard-Wagner-Straße",
    "amenity": "restaurant",
    "contact:facebook": "https://www.facebook.com/cafebaroberstuebchen/",
    "contact:instagram": "https://www.instagram.com/cafebar_oberstuebchen/",
    "cuisine": "coffee_shop",
    "diet:vegan": "yes",
    "diet:vegetarian": "yes",
    "name": "Oberstübchen",
    "old_name": "Laube 57",
    "opening_hours": "Mo,We,Th 17:30-23:00; Tu off; Fr,Sa 17:30-02:00; Su 14:30-21:00",
    "outdoor_seating": "yes"
  }
},
{
  "type": "node",
  "id": 7388445891,
  "lat": 51.4958187,
  "lon": 11.9657115,
  "tags": {
    "addr:city": "Halle (Saale)",
    "addr:housenumber": "60",
    "addr:postcode": "06114",
    "addr:street": "Richard-Wagner-Straße",
    "amenity": "fast_food",
    "contact:facebook": "https://www.facebook.com/pg/City-Döner-104417934452006/",
    "contact:phone": "+49 345 23968706",
    "cuisine": "kebab",
    "diet:vegan": "yes",
    "diet:vegetarian": "yes",
    "name": "City Döner",
    "opening_hours": "Mo-Fr 11:00-22:00; Sa 12:00-23:00; Su 12:00-22:00",
    "website": "https://city-doner-halle-restaurant.business.site/"
  }
},
{
  "type": "node",
  "id": 8018723343,
  "lat": 51.4910051,
  "lon": 11.9718784,
  "tags": {
    "addr:city": "Halle (Saale)",
    "addr:housenumber": "30",
    "addr:postcode": "06108",
    "addr:street": "Adam-Kuckhoff-Straße",
    "amenity": "cafe",
    "contact:email": "kontakt@cafe-kuckhoff.de",
    "contact:instagram": "https://www.instagram.com/cafekuckhoff/",
    "contact:phone": "+49 345 13256501",
    "contact:website": "https://www.cafe-kuckhoff.de",
    "diet:vegan": "yes",
    "diet:vegetarian": "yes",
    "name": "Café Kuckhoff",
    "opening_hours": "Mo,We,Th 09:00-21:00; Tu off; Fr-Sa 09:00-22:00; Su 09:00-18:00"
  }
},
{
  "type": "node",
  "id": 8018837433,
  "lat": 51.4908416,
  "lon": 11.9574035,
  "tags": {
    "addr:city": "Halle (Saale)",
    "addr:housenumber": "7",
    "addr:postcode": "06108",
    "addr:street": "Neuwerk",
    "amenity": "restaurant",
    "contact:website": "https://www.studentenwerk-halle.de/mensen-cafebars/mensen-in-halle/mensa-neuwerk",
    "cuisine": "canteen",
    "diet:vegan": "yes",
    "diet:vegetarian": "yes",
    "name": "Mensa Neuwerk",
    "opening_hours": "Mo-Th 11:30-14:00; Fr 11:30-13:30",
    "outdoor_seating": "yes"
  }
},
{
  "type": "node",
  "id": 8018875351,
  "lat": 51.5030097,
  "lon": 11.9569211,
  "tags": {
    "addr:city": "Halle (Saale)",
    "addr:housenumber": "5",
    "addr:postcode": "06114",
    "addr:street": "Seebener Straße",
    "amenity": "restaurant",
    "contact:phone": "+49 345 47823360",
    "contact:website": "https://www.objekt5.com/index.php/kontakte/restaurant-ruine",
    "diet:vegan": "yes",
    "diet:vegetarian": "yes",
    "name": "Restaurant Ruine",
    "opening_hours": "Mo 17:00-24:00; Tu-Th 12:00-24:00; Fr-Su 12:00-01:00"
  }
},
{
  "type": "node",
  "id": 8357411012,
  "lat": 51.4873071,
  "lon": 11.9681005,
  "tags": {
    "addr:city": "Halle (Saale)",
    "addr:housenumber": "6a",
    "addr:postcode": "06108",
    "addr:street": "Universitätsring",
    "amenity": "fast_food",
    "contact:facebook": "https://www.facebook.com/Falafello-593697840999599/",
    "contact:instagram": "https://www.instagram.com/falafello_the_world_of_falafel/",
    "contact:website": "https://www.falafello.de",
    "cuisine": "oriental;international",
    "diet:halal": "yes",
    "diet:vegan": "yes",
    "diet:vegetarian": "only",
    "drive_through": "no",
    "name": "Falafello",
    "opening_hours": "Mo-Su,PH 11:00-22:00",
    "takeaway": "yes"
  }
},
{
  "type": "node",
  "id": 8616778482,
  "lat": 51.4886836,
  "lon": 11.9787619,
  "tags": {
    "addr:city": "Halle (Saale)",
    "addr:housenumber": "16",
    "addr:postcode": "06112",
    "addr:street": "Am Steintor",
    "amenity": "restaurant",
    "contact:facebook": "https://www.facebook.com/WORLD-OF-PIZZA-102007615226988",
    "contact:phone": "+49 345 78283878",
    "contact:website": "https://www.world-of-pizza.de/halle-saale-city/",
    "cuisine": "pizza",
    "delivery": "only",
    "diet:vegan": "yes",
    "diet:vegan:labeled": "yes",
    "diet:vegetarian": "yes",
    "name": "World of Pizza",
    "opening_hours": "Mo-Su 11:00-23:00"
  }
},
{
  "type": "node",
  "id": 8773861578,
  "lat": 51.4963212,
  "lon": 11.9660347,
  "tags": {
    "addr:city": "Halle (Saale)",
    "addr:housenumber": "6",
    "addr:postcode": "06114",
    "addr:street": "Reilstraße",
    "amenity": "cafe",
    "contact:facebook": "https://www.facebook.com/JUICY-Donuts-Bagels-101929962043700/",
    "contact:instagram": "https://www.instagram.com/juicy_halle/",
    "contact:phone": "+49 176 800 605 78",
    "contact:website": "https://www.juicy-halle.de",
    "cuisine": "donut;bagel",
    "diet:vegan": "yes",
    "diet:vegetarian": "yes",
    "name": "JUICY",
    "opening_hours": "Mo-Sa 08:00-21:00; Su 10:00-21:00",
    "start_date": "2021-06-01"
  }
},
{
  "type": "node",
  "id": 8793001854,
  "lat": 51.3704679,
  "lon": 11.9831239,
  "tags": {
    "addr:city": "Merseburg",
    "addr:housenumber": "4",
    "addr:postcode": "06217",
    "addr:street": "Querfurter Straße",
    "amenity": "restaurant",
    "contact:phone": "+49 3461 2391255",
    "contact:website": "https://sushideluxe.de/restaurants/halle/",
    "cuisine": "sushi",
    "delivery": "yes",
    "diet:vegan": "yes",
    "diet:vegan:labeled": "yes",
    "diet:vegetarian": "yes",
    "fixme": "seit Mai neu im MerseCenter, an welcher Stelle ist mir aber nicht bekannt",
    "name": "SUSHIdeluxe",
    "opening_hours": "Mo-Su 11:00-20:45"
  }
},
{
  "type": "node",
  "id": 8793003720,
  "lat": 51.4883301,
  "lon": 11.9789450,
  "tags": {
    "addr:city": "Halle (Saale)",
    "addr:housenumber": "18",
    "addr:postcode": "06112",
    "addr:street": "Am Steintor",
    "amenity": "restaurant",
    "contact:phone": "+49 345 68892020",
    "contact:website": "https://sushideluxe.de/restaurants/halle/",
    "cuisine": "sushi",
    "delivery": "yes",
    "diet:vegan": "yes",
    "diet:vegan:labeled": "yes",
    "diet:vegetarian": "yes",
    "name": "SUSHIdeluxe",
    "opening_hours": "Mo-Fr 11:30-22:00, Sa-Su 17:00-22:00"
  }
},
{
  "type": "node",
  "id": 8795957217,
  "lat": 51.4776208,
  "lon": 11.9871928,
  "tags": {
    "addr:city": "Halle (Saale)",
    "addr:housenumber": "1",
    "addr:postcode": "06112",
    "addr:street": "Hans-Dietrich-Genscher-Platz",
    "amenity": "restaurant",
    "brand": "dean&david",
    "brand:wikidata": "Q66132404",
    "contact:website": "https://deananddavid.com/halle-hans-dietrich-genscher-platz/",
    "cuisine": "salad;sandwich",
    "diet:vegan": "yes",
    "diet:vegan:labeled": "yes",
    "diet:vegetarian": "yes",
    "level": "-1",
    "name": "dean&david",
    "opening_hours": "Mo-Su 09:00-20:00",
    "start_date": "2021"
  }
},
{
  "type": "node",
  "id": 8859490294,
  "lat": 51.4880614,
  "lon": 11.9658211,
  "tags": {
    "addr:city": "Halle (Saale)",
    "addr:housenumber": "4",
    "addr:postcode": "06108",
    "addr:street": "Geiststraße",
    "amenity": "ice_cream",
    "contact:facebook": "https://www.facebook.com/Eisfvchs-322558108503412",
    "contact:instagram": "https://www.instagram.com/eisfvchs/",
    "contact:website": "https://eisfvchs.com",
    "diet:vegan": "yes",
    "diet:vegetarian": "only",
    "name": "Eisfvchs",
    "opening_hours": "Su-Th 12:00-18:00; Fr-Sa 12:00-19:00"
  }
},
{
  "type": "node",
  "id": 8867577091,
  "lat": 51.4819066,
  "lon": 11.9669149,
  "tags": {
    "addr:city": "Halle (Saale)",
    "addr:housenumber": "1",
    "addr:postcode": "06108",
    "addr:street": "Salzgrafenstraße",
    "contact:instagram": "https://www.instagram.com/nobelsuess/",
    "contact:website": "https://nobelsuess.eu",
    "diet:vegan": "yes",
    "diet:vegetarian": "only",
    "name": "nobelsüß",
    "opening_hours": "Mo-Fr 11:00-17:00; Sa 10:00-16:00",
    "operator": "Annelie Dorn",
    "shop": "pastry"
  }
},
{
  "type": "node",
  "id": 8932643632,
  "lat": 51.4918307,
  "lon": 11.9710526,
  "tags": {
    "addr:city": "Halle (Saale)",
    "addr:housenumber": "16",
    "addr:postcode": "06108",
    "addr:street": "Puschkinstraße",
    "amenity": "ice_cream",
    "diet:vegan": "limited",
    "diet:vegetarian": "yes",
    "email": "lecker@alikgelato.de",
    "name": "Alik Gelato",
    "outdoor_seating": "yes",
    "phone": "+49 171 3651504",
    "website": "http://www.alikgelato.de"
  }
},
{
  "type": "node",
  "id": 9033240019,
  "lat": 51.4938316,
  "lon": 11.9663524,
  "tags": {
    "addr:city": "Halle (Saale)",
    "addr:housenumber": "22",
    "addr:postcode": "06114",
    "addr:street": "Mühlweg",
    "amenity": "fast_food",
    "brand": "Papa John's",
    "brand:wikidata": "Q2759586",
    "brand:wikipedia": "en:Papa John's Pizza",
    "contact:phone": "+49 345 6788999",
    "contact:website": "https://www.papajohns.de/papa-johns-halle/",
    "cuisine": "pizza",
    "delivery": "yes",
    "diet:vegan": "yes",
    "diet:vegetarian": "yes",
    "name": "Papa John's",
    "opening_hours": "Mo-Su 11:00-23:00",
    "operator": "UP Gastro GmbH",
    "takeaway": "yes",
    "toilets:wheelchair": "no",
    "wheelchair": "limited"
  }
},
{
  "type": "node",
  "id": 9140808707,
  "lat": 51.4929765,
  "lon": 11.9715732,
  "tags": {
    "addr:city": "Halle (Saale)",
    "addr:housenumber": "62",
    "addr:postcode": "06108",
    "addr:street": "Ludwig-Wucherer-Straße",
    "amenity": "cafe",
    "contact:facebook": "https://www.facebook.com/JUICY-Donuts-Bagels-101929962043700/",
    "contact:instagram": "https://www.instagram.com/juicy_halle/",
    "contact:phone": "+49 176 800 605 78",
    "contact:website": "https://www.juicy-halle.de",
    "cuisine": "donut;bagel",
    "diet:vegan": "yes",
    "diet:vegetarian": "yes",
    "name": "JUICY",
    "opening_hours": "Mo-Su 10:00-21:00"
  }
},
{
  "type": "node",
  "id": 9212628476,
  "lat": 51.5098252,
  "lon": 11.9620274,
  "tags": {
    "addr:city": "Halle (Saale)",
    "addr:housenumber": "9a",
    "addr:postcode": "06118",
    "addr:street": "Trothaer Straße",
    "amenity": "restaurant",
    "contact:website": "https://www.lieferando.de/speisekarte/pizza-one-1",
    "cuisine": "pizza",
    "delivery": "yes",
    "diet:vegan": "yes",
    "diet:vegetarian": "yes",
    "name": "Pizza One",
    "opening_hours": "Mo-Su 11:00-24:00",
    "phone": "+49 345 52387777",
    "takeaway": "yes",
    "website": "https://www.pizzaone-halle.de"
  }
},
{
  "type": "node",
  "id": 9343768547,
  "lat": 51.4951686,
  "lon": 11.9659886,
  "tags": {
    "addr:city": "Halle (Saale)",
    "addr:housenumber": "38",
    "addr:postcode": "06114",
    "addr:street": "Händelstraße",
    "amenity": "fast_food",
    "brand": "Domino's",
    "brand:wikidata": "Q839466",
    "brand:wikipedia": "en:Domino's Pizza",
    "cuisine": "pizza",
    "diet:vegan": "yes",
    "diet:vegetarian": "yes",
    "drive_through": "no",
    "name": "Domino's",
    "opening_hours": "Mo-Su 11:00-23:00",
    "phone": "+49 345 530130",
    "takeaway": "yes",
    "website": "https://www.dominos.de/kaufhaus/de-hallereileck-33831",
    "wheelchair": "limited"
  }
},
{
  "type": "node",
  "id": 9572703189,
  "lat": 51.4843564,
  "lon": 11.9695742,
  "tags": {
    "addr:city": "Halle (Saale)",
    "addr:housenumber": "58",
    "addr:postcode": "06108",
    "addr:street": "Große Ulrichtsraße",
    "amenity": "fast_food",
    "contact:instagram": "https://www.instagram.com/bowlsking/",
    "delivery": "yes",
    "diet:vegan": "limited",
    "diet:vegetarian": "yes",
    "name": "Bowls King",
    "takeaway": "yes"
  }
},
{
  "type": "node",
  "id": 9572733602,
  "lat": 51.4929347,
  "lon": 11.9716439,
  "tags": {
    "addr:city": "Halle (Saale)",
    "addr:housenumber": "62",
    "addr:postcode": "06108",
    "addr:street": "Ludwig-Wucherer-Straße",
    "amenity": "ice_cream",
    "contact:email": "info@eisdeal.de",
    "contact:facebook": "https://www.facebook.com/eisdeal.de",
    "contact:instagram": "https://www.instagram.com/eisdealerhalle",
    "contact:website": "https://www.eisdeal.de",
    "cuisine": "ice_cream",
    "delivery": "no",
    "diet:vegan": "yes",
    "diet:vegetarian": "only",
    "name": "Eis-Dealer",
    "opening_hours": "12:00-18:00",
    "outdoor_seating": "no",
    "takeaway": "yes",
    "toilets:wheelchair": "no",
    "wheelchair": "no"
  }
},
{
  "type": "node",
  "id": 9676330117,
  "lat": 51.4964693,
  "lon": 11.9660487,
  "tags": {
    "addr:city": "Halle (Saale)",
    "addr:housenumber": "7",
    "addr:postcode": "06114",
    "addr:street": "Reilstraße",
    "amenity": "restaurant",
    "contact:instagram": "bay.vegan",
    "cuisine": "asian",
    "diet:vegan": "only",
    "diet:vegetarian": "yes",
    "level": "0",
    "name": "Bay Vegan",
    "opening_hours": "Mo-Su 11:00-15:00, 17:00-23:00",
    "outdoor_seating": "yes",
    "payment:cards": "yes",
    "payment:cash": "yes",
    "start_date": "2022-04-12",
    "wheelchair": "limited"
  }
},
{
  "type": "way",
  "id": 22883232,
  "center": {
    "lat": 51.4965308,
    "lon": 11.9339655
  },
  "nodes": [
    246053428,
    1579647287,
    246053429,
    3943019475,
    246053430,
    246053433,
    3943019476,
    246053428
  ],
  "tags": {
    "addr:city": "Halle (Saale)",
    "addr:housenumber": "7",
    "addr:postcode": "06120",
    "addr:street": "Theodor-Lieser-Straße",
    "alt_name": "Mensa Heide-Süd",
    "amenity": "fast_food",
    "building": "yes",
    "building:levels": "1",
    "contact:website": "https://www.studentenwerk-halle.de/mensen-cafebars/mensen-in-halle/heidemensa-mit-cafebar",
    "diet:vegan": "limited",
    "diet:vegetarian": "yes",
    "name": "Heidemensa",
    "opening_hours": "Mo-Fr 11:30-14:00",
    "operator": "Studentenwerk Halle",
    "outdoor_seating": "yes",
    "roof:colour": "grey",
    "roof:shape": "flat",
    "smoking": "no",
    "takeaway": "yes",
    "toilets:wheelchair": "no",
    "wheelchair": "yes"
  }
},
{
  "type": "way",
  "id": 27177218,
  "center": {
    "lat": 51.4869272,
    "lon": 11.9688723
  },
  "nodes": [
    298190873,
    298184379,
    298190876,
    298190880,
    942721127,
    298190884,
    298190889,
    9240725883,
    298190892,
    4271319107,
    298190873
  ],
  "tags": {
    "addr:city": "Halle (Saale)",
    "addr:housenumber": "5",
    "addr:postcode": "06108",
    "addr:street": "Universitätsring",
    "amenity": "restaurant",
    "building": "yes",
    "cuisine": "canteen",
    "diet:vegan": "limited",
    "diet:vegetarian": "yes",
    "name": "Burse zur Tulpe",
    "opening_hours": "Mo-Th 09:00-19:00; Fr 09:00-15:00; Sa 12:00-14:00; Su off",
    "opening_hours:covid19": "off",
    "toilets:wheelchair": "yes",
    "website": "https://www.studentenwerk-halle.de/mensen-cafebars/mensen-in-halle/mensa-tulpe",
    "wheelchair": "yes",
    "wheelchair:description": "WC im Keller mit Fahrstuhl",
    "wikidata": "Q1017039"
  }
},
{
  "type": "way",
  "id": 32804265,
  "center": {
    "lat": 51.4799460,
    "lon": 11.9981454
  },
  "nodes": [
    369655497,
    369655499,
    369655496,
    369655501,
    369655497
  ],
  "tags": {
    "addr:city": "Halle (Saale)",
    "addr:country": "DE",
    "addr:housenumber": "49a",
    "addr:postcode": "06112",
    "addr:street": "Delitzscher Straße",
    "amenity": "fast_food",
    "building": "yes",
    "contact:phone": "+49 345 68597862",
    "contact:website": "https://www.freddy-fresh.de",
    "cuisine": "pizza",
    "diet:vegan": "yes",
    "diet:vegetarian": "yes",
    "name": "Freddy Fresh",
    "opening_hours": "Mo-Su 11:00-22:00",
    "wheelchair": "limited"
  }
},
{
  "type": "way",
  "id": 47571137,
  "center": {
    "lat": 51.4574074,
    "lon": 11.9542164
  },
  "nodes": [
    605229830,
    605229835,
    605229833,
    605229831,
    605229830
  ],
  "tags": {
    "addr:city": "Halle (Saale)",
    "addr:housenumber": "68",
    "addr:postcode": "06128",
    "addr:street": "Ammendorfer Weg",
    "amenity": "fast_food",
    "brand": "Papa John's",
    "brand:wikidata": "Q2759586",
    "brand:wikipedia": "en:Papa John's Pizza",
    "building": "yes",
    "contact:phone": "+49 345 6788999",
    "contact:website": "https://www.papajohns.de/papa-johns-halle/",
    "cuisine": "pizza",
    "delivery": "yes",
    "diet:vegan": "yes",
    "diet:vegetarian": "yes",
    "name": "Papa John's",
    "opening_hours": "Mo-Su 11:00-23:00",
    "operator": "UP Gastro GmbH",
    "takeaway": "yes",
    "toilets:wheelchair": "no",
    "wheelchair": "no"
  }
},
{
  "type": "way",
  "id": 61561597,
  "center": {
    "lat": 51.4936383,
    "lon": 11.9475137
  },
  "nodes": [
    767887419,
    767887432,
    767887437,
    767887443,
    767887447,
    767887453,
    767887458,
    767887476,
    767887485,
    767887487,
    767887488,
    767887489,
    767887490,
    767887491,
    767887419
  ],
  "tags": {
    "addr:city": "Halle (Saale)",
    "addr:housenumber": "1",
    "addr:postcode": "06108",
    "addr:street": "Peißnitzinsel",
    "amenity": "cafe",
    "biergarten": "yes",
    "building": "yes",
    "contact:facebook": "https://www.facebook.com/peissnitzhauspiraten/",
    "contact:instagram": "https://www.instagram.com/peissnitzhaus/",
    "contact:website": "https://www.peissnitzhaus.de/index.php/gartenlokal",
    "cuisine": "regional;coffee_shop",
    "diet:vegan": "yes",
    "diet:vegetarian": "yes",
    "name": "Gartenlokal am Peißnitzhaus/Peißnitzhaus-Café",
    "opening_hours": "Mo-Fr 11:30-17:00; Sa-Su 10:00-18:00",
    "outdoor_seating": "yes",
    "source": "https://www.peissnitzhaus.de/index.php/gartenlokal",
    "toilets:wheelchair": "yes",
    "wheelchair": "yes",
    "wheelchair:description": "doppelter Eintrag (siehe Peißnitzhaus)"
  }
},
{
  "type": "way",
  "id": 98848040,
  "center": {
    "lat": 51.5318140,
    "lon": 11.9671125
  },
  "nodes": [
    1143509869,
    1143509901,
    7507520338,
    1143509857,
    1143509824,
    2031816670,
    1143509869
  ],
  "tags": {
    "addr:city": "Halle (Saale)",
    "addr:country": "DE",
    "addr:housenumber": "30",
    "addr:postcode": "06118",
    "addr:street": "An der Witschke",
    "amenity": "cafe",
    "bar": "yes",
    "building": "yes",
    "cuisine": "regional;international;coffee_shop",
    "description": "Das Ding in Seeben ist eine sozial-gastronomische Einrichtung, in der am Wochenende der gastronomische Betrieb geöffnet ist und tagesabhängig soziale Veranstaltungen stattfinden",
    "diet:gluten_free": "yes",
    "diet:organic": "yes",
    "diet:vegan": "yes",
    "diet:vegetarian": "yes",
    "email": "kontakt@das-ding-in-seeben.de",
    "internet_access": "yes",
    "internet_access:fee": "customers",
    "name": "Das Ding in Seeben",
    "note": "Kleinunternehmen",
    "opening_hours": "Fr-Su 10:00-19:00",
    "outdoor_seating": "yes",
    "phone": "+49 178 5851535",
    "website": "https://www.das-ding-in-seeben.de"
  }
},
{
  "type": "way",
  "id": 120082234,
  "center": {
    "lat": 51.4932826,
    "lon": 11.9744950
  },
  "nodes": [
    1347317717,
    1347317685,
    1347317707,
    1347317686,
    1347317725,
    1347317638,
    1347317664,
    1347317689,
    1347317669,
    1347317613,
    1347317717
  ],
  "tags": {
    "addr:city": "Halle (Saale)",
    "addr:country": "DE",
    "addr:housenumber": "8",
    "addr:postcode": "06114",
    "addr:street": "Viktor-Scheffel-Straße",
    "amenity": "restaurant",
    "building": "yes",
    "contact:facebook": "https://www.facebook.com/colonne.morris/",
    "contact:instagram": "https://www.instagram.com/cafebarcolonne/",
    "contact:phone": "+49 345 27983176",
    "cuisine": "crepe;french;breakfast;coffee_shop;cake;pasta;tea",
    "diet:vegan": "limited",
    "diet:vegetarian": "yes",
    "internet_access": "wlan",
    "internet_access:fee": "no",
    "name": "Colonne Morris",
    "opening_hours": "Mo-Th 09:00-01:00; Fr-Sa 09:00-02:00; Su 09:00-00:00",
    "toilets:wheelchair": "no",
    "wheelchair": "no"
  }
},
{
  "type": "way",
  "id": 128558823,
  "center": {
    "lat": 51.4884586,
    "lon": 11.9658099
  },
  "nodes": [
    1420441718,
    2008276159,
    9231278256,
    1420441733,
    1420441739,
    1420441718
  ],
  "tags": {
    "addr:city": "Halle (Saale)",
    "addr:country": "DE",
    "addr:housenumber": "10",
    "addr:postcode": "06108",
    "addr:street": "Geiststraße",
    "amenity": "restaurant",
    "building": "yes",
    "contact:facebook": "https://www.facebook.com/palmyrainhalle",
    "contact:phone": "+49 345 4458082",
    "contact:website": "http://www.palmyra-halle.de",
    "cuisine": "oriental",
    "delivery": "yes",
    "diet:halal": "yes",
    "diet:vegan": "yes",
    "diet:vegetarian": "yes",
    "internet_access": "wlan",
    "name": "Palmyra",
    "name:ar": "تدمر",
    "name:de": "Palmyra",
    "opening_hours": "Mo-Su 11:30-14:30,17:00-24:00",
    "smoking": "separated",
    "takeaway": "yes",
    "wheelchair": "no"
  }
},
{
  "type": "way",
  "id": 134238289,
  "center": {
    "lat": 51.4827162,
    "lon": 11.9673010
  },
  "nodes": [
    1476641303,
    3321375768,
    1476641263,
    1476641266,
    1476641307,
    1476641352,
    2626497916,
    2626497918,
    2626497920,
    2626497923,
    2626497914,
    1476641405,
    1476641303
  ],
  "tags": {
    "addr:city": "Halle (Saale)",
    "addr:country": "DE",
    "addr:housenumber": "6",
    "addr:postcode": "06108",
    "addr:street": "Talamtstraße",
    "amenity": "restaurant",
    "building": "apartments",
    "cuisine": "german",
    "diet:vegan": "yes",
    "diet:vegetarian": "yes",
    "email": "kontakt@moenchshof-halle.de",
    "fax": "+49 345 2091065",
    "historic": "yes",
    "name": "Mönchshof",
    "opening_hours": "Tu-Sa 11:00-23:00; Su 11:00-15:00; Mo off",
    "operator": "Jens Liebezeit",
    "outdoor_seating": "yes",
    "phone": "+49 345 2021726",
    "toilets:wheelchair": "no",
    "website": "https://moenchshof-halle.de/",
    "wheelchair": "limited",
    "wheelchair:description": "2 Stufen + Schild \"Rollstuhlfahrer bitte melden\", 2 Rampen vorhanden, bei Reservierung \"Rollstuhlfahrer\" angeben"
  }
},
{
  "type": "way",
  "id": 164756625,
  "center": {
    "lat": 51.4945584,
    "lon": 11.9664306
  },
  "nodes": [
    1763600536,
    1763600538,
    1763600545,
    1763600544,
    1763600536
  ],
  "tags": {
    "addr:city": "Halle (Saale)",
    "addr:country": "DE",
    "addr:housenumber": "19",
    "addr:postcode": "06108",
    "addr:street": "Bernburger Straße",
    "amenity": "fast_food",
    "building": "yes",
    "contact:facebook": "https://www.facebook.com/Falafello-593697840999599/",
    "contact:instagram": "https://www.instagram.com/falafello_the_world_of_falafel/",
    "contact:website": "https://www.falafello.de",
    "cuisine": "oriental;international",
    "description": "Falafel-Bistro mit großem vegetarisch-veganen Angebot Sitzplätze innen und außen",
    "diet:vegan": "yes",
    "diet:vegetarian": "only",
    "drive_through": "no",
    "name": "Falafello",
    "opening_hours": "Mo-Su,PH 10:00-24:00",
    "opening_hours:covid19": "Mo-Su,PH 11:00-22:00",
    "outdoor_seating": "yes",
    "takeaway": "yes",
    "toilets:wheelchair": "no",
    "wheelchair": "limited"
  }
},
{
  "type": "way",
  "id": 164756646,
  "center": {
    "lat": 51.4948689,
    "lon": 11.9668081
  },
  "nodes": [
    1763600575,
    1763600594,
    1763600559,
    1763600558,
    1763600557,
    1763600563,
    1763600560,
    1763600575
  ],
  "tags": {
    "addr:city": "Halle (Saale)",
    "addr:country": "DE",
    "addr:housenumber": "43",
    "addr:postcode": "06108",
    "addr:street": "Ludwig-Wucherer-Straße",
    "amenity": "fast_food",
    "building": "yes",
    "contact:facebook": "https://www.facebook.com/SPICY-Mexican-Streetfood-475148036602683/",
    "contact:instagram": "https://www.instagram.com/spicy_halle/",
    "contact:website": "https://www.spicy-halle.de",
    "cuisine": "mexican",
    "diet:vegan": "yes",
    "diet:vegetarian": "yes",
    "drive_through": "no",
    "name": "SPICY",
    "old_name": "NICE",
    "opening_hours": "Mo-Su 11:00-21:00"
  }
},
{
  "type": "way",
  "id": 178744104,
  "center": {
    "lat": 51.4838231,
    "lon": 11.9685990
  },
  "nodes": [
    1891008546,
    1891008545,
    2787725888,
    1891008539,
    1891008531,
    1891008532,
    1891008546
  ],
  "tags": {
    "addr:city": "Halle (Saale)",
    "addr:country": "DE",
    "addr:housenumber": "2",
    "addr:postcode": "06108",
    "addr:street": "Große Nikolaistraße",
    "amenity": "restaurant",
    "building": "yes",
    "contact:email": "info@halleschesbrauhaus.de",
    "contact:phone": "+49 345 212570",
    "contact:website": "https://www.halleschesbrauhaus.de",
    "cuisine": "german",
    "diet:vegan": "yes",
    "diet:vegetarian": "yes",
    "microbrewery": "yes",
    "name": "Hallesches Brauhaus",
    "opening_hours": "Mo-Fr 16:00-24:00; Sa 11:00-24:00; Su 11:00-21:00; PH 11:00-24:00",
    "toilets:wheelchair": "yes",
    "wheelchair": "yes"
  }
},
{
  "type": "way",
  "id": 182854644,
  "center": {
    "lat": 51.3558742,
    "lon": 11.9992993
  },
  "nodes": [
    1932197657,
    1932197619,
    1932197615,
    1932197605,
    1932197603,
    1932197616,
    1932197617,
    1932197622,
    1932197659,
    1932197658,
    1932197677,
    1932197679,
    1932197657
  ],
  "tags": {
    "addr:city": "Merseburg",
    "addr:housenumber": "6",
    "addr:postcode": "06217",
    "addr:street": "Burgstraße",
    "amenity": "restaurant",
    "building": "yes",
    "check_date:opening_hours": "2021-09-24",
    "cuisine": "indian",
    "diet:vegan": "yes",
    "diet:vegetarian": "yes",
    "name": "Tajmahal",
    "opening_hours": "Mo-Su 11:00-23:00",
    "website": "http://www.tajmahal-merseburg.de/",
    "wheelchair": "no"
  }
},
{
  "type": "way",
  "id": 189926769,
  "center": {
    "lat": 51.4807172,
    "lon": 11.9669297
  },
  "nodes": [
    2005386101,
    2005386095,
    2005386099,
    2005386098,
    2005386101
  ],
  "tags": {
    "addr:city": "Halle (Saale)",
    "addr:country": "DE",
    "addr:housenumber": "3",
    "addr:postcode": "06108",
    "addr:street": "Dreyhauptstraße",
    "amenity": "cafe",
    "building": "yes",
    "contact:facebook": "https://www.facebook.com/LichthausHalle",
    "contact:instagram": "https://www.instagram.com/lichthaushalle/",
    "diet:vegan": "yes",
    "internet_access": "wlan",
    "internet_access:fee": "no",
    "name": "Lichthaus",
    "opening_hours": "We-Th 14:00-18:00; Fr-Sa 14:00-24:00",
    "operator": "Operation Mobilisation e. V.",
    "phone": "+49 345 69494454",
    "smoking": "no",
    "toilets:wheelchair": "yes",
    "website": "https://www.lichthaushalle.de",
    "wheelchair": "yes",
    "wheelchair:description": "über eine Rollstuhlrampe erreichbar"
  }
},
{
  "type": "way",
  "id": 255017911,
  "center": {
    "lat": 51.2814207,
    "lon": 11.9842788
  },
  "nodes": [
    2607709255,
    2607709256,
    2607709257,
    2607709258,
    2607709255
  ],
  "tags": {
    "addr:city": "Leuna",
    "addr:housenumber": "1",
    "addr:postcode": "06237",
    "addr:street": "Maienweg",
    "air_conditioning": "yes",
    "amenity": "restaurant",
    "building": "yes",
    "cuisine": "german;burger;regional;coffee_shop;ice_cream;barbecue;sandwich;chicken",
    "diet:local": "yes",
    "diet:meat": "yes",
    "diet:non-vegetarian": "yes",
    "diet:vegan": "yes",
    "diet:vegetarian": "yes",
    "name": "Raffiness",
    "opening_hours": "Mo-Fr 11:00-14:00",
    "outdoor_seating": "yes",
    "smoking": "separated",
    "takeaway": "yes",
    "website": "https://www.aramark.de/",
    "wheelchair": "yes"
  }
},
{
  "type": "way",
  "id": 261692804,
  "center": {
    "lat": 51.4491067,
    "lon": 12.0237008
  },
  "nodes": [
    2672936941,
    2672936939,
    2672936933,
    2672936936,
    2672936941
  ],
  "tags": {
    "addr:city": "Halle (Saale)",
    "addr:country": "DE",
    "addr:housenumber": "2",
    "addr:postcode": "06112",
    "addr:street": "Messestraße",
    "amenity": "restaurant",
    "building": "yes",
    "contact:facebook": "https://www.facebook.com/Espitas.Halle/",
    "contact:phone": "+49 345 68878555",
    "contact:website": "https://www.espitas.de/restaurants/espitas-halle",
    "cuisine": "mexican",
    "description": "mexikanisches omnivores Restaurant mit veganem Angebot die veganen Speisen sind auch als solche gekennzeichnet viele vegane Angebote: Flautas, Nachos, Chili sin carne, Salate, Kräuerbrot, Tacos, Patata, Enchiladas, Chimichangas, usw.",
    "diet:vegan": "yes",
    "diet:vegetarian": "yes",
    "layer": "1",
    "name": "Espitas",
    "opening_hours": "Mo-Th 11:00-23:00; Fr 11:00-24:00; Sa 10:00-24:00; Su 10:00-23:00",
    "operator": "ESPITAS GmbH & Co. KG",
    "outdoor_seating": "yes",
    "payment:cash": "yes",
    "payment:maestro": "yes",
    "payment:mastercard": "yes",
    "payment:visa": "yes",
    "smoking": "outside",
    "wheelchair": "yes"
  }
},
{
  "type": "way",
  "id": 304682735,
  "center": {
    "lat": 51.4779569,
    "lon": 11.9713475
  },
  "nodes": [
    3092584827,
    3092584826,
    271226989,
    3092584820,
    3092584821,
    3092584822,
    3092584827
  ],
  "tags": {
    "addr:city": "Halle (Saale)",
    "addr:country": "DE",
    "addr:housename": "Haus 27",
    "addr:housenumber": "1",
    "addr:postcode": "06110",
    "addr:street": "Franckeplatz",
    "amenity": "restaurant",
    "building": "yes",
    "capacity": "210",
    "contact:website": "https://www.studentenwerk-halle.de/mensen-cafebars/mensen-in-halle/mensa-franckesche-stiftungen",
    "cuisine": "canteen",
    "diet:vegan": "limited",
    "diet:vegetarian": "yes",
    "drive_through": "no",
    "historic": "building",
    "menu:url": "https://www.studentenwerk-halle.de/mensen-cafebars/speiseplaene",
    "name": "Mensa Franckesche Stiftungen",
    "name:etymology:wikidata": "Q58753",
    "opening_hours": "Mo-Th 10:00-14:15; Fr 10:00-14:00",
    "operator": "Studentenwerk Halle",
    "outdoor_seating": "yes",
    "smoking": "no",
    "takeaway": "yes",
    "toilets:wheelchair": "no",
    "wheelchair": "yes",
    "wheelchair:description": "Zugang Eingang Frankeplatz Weg bis zu Haus 25 folgen, 2x links abbiegen, Mensa befindet sich hinten links, Weg führt über Schotter;Rampe zum Eingang kann verrutschen;Tablett – Lauf an der Essensausgabe nicht durchgängig",
    "wikipedia": "de:Franckesche Stiftungen"
  }
},
{
  "type": "way",
  "id": 375345326,
  "center": {
    "lat": 51.4893364,
    "lon": 11.9737470
  },
  "nodes": [
    3787144821,
    3787144822,
    3787144825,
    3787144826,
    3787144827,
    3787144828,
    3787144821
  ],
  "tags": {
    "addr:city": "Halle (Saale)",
    "addr:country": "DE",
    "addr:housenumber": "34b",
    "addr:postcode": "06108",
    "addr:street": "Adam-Kuckhoff-Straße",
    "amenity": "cafe",
    "building": "yes",
    "contact:phone": "+49 345 5524980",
    "contact:website": "https://www.studentenwerk-halle.de/mensen-cafebars/mensen-in-halle/cafebar-steintor-campus",
    "diet:vegan": "yes",
    "diet:vegetarian": "yes",
    "name": "Cafebar Steintor-Campus",
    "opening_hours": "Mo-Th 08:00-17:00; Fr 08:00-14:30",
    "operator": "Studentenwerk Halle",
    "outdoor_seating": "yes",
    "smoking": "no",
    "takeaway": "yes",
    "toilets:wheelchair": "yes",
    "wheelchair": "yes"
  }
},
{
  "type": "way",
  "id": 467769739,
  "center": {
    "lat": 51.4973787,
    "lon": 11.9659804
  },
  "nodes": [
    3814088029,
    671894831,
    4623705853,
    4623705856,
    671894825,
    671894824,
    4623705859,
    3814088029
  ],
  "tags": {
    "addr:city": "Halle (Saale)",
    "addr:country": "DE",
    "addr:housenumber": "13",
    "addr:postcode": "06114",
    "addr:street": "Reilstraße",
    "amenity": "restaurant",
    "building": "yes",
    "contact:phone": "+49 345 6846567",
    "contact:website": "http://www.kim-halle.de/",
    "cuisine": "asian",
    "delivery": "yes",
    "diet:vegan": "limited",
    "diet:vegetarian": "yes",
    "name": "Goldene Schildkröte",
    "opening_hours": "Mo-Su 11:00-22:00",
    "source": "Bing",
    "wheelchair": "limited",
    "wheelchair:description": "Eingang mit Rampe, kein behindertengerechtes WC"
  }
}

  ]
}
